start_station_id,start_lat,start_lng,city,state,postcode
2733.03,40.633386339620365,-74.01656483148147,New York,New York,10120
2782.02,40.63576174408081,-74.01993203417676,New York,New York,10120
2821.05,40.63554129875316,-74.01300360017088,New York,New York,10120
2832.03,40.637016609502076,-74.02215699019918,New York,New York,10009
2861.02,40.63859231954545,-74.01017189748252,New York,New York,11227
2872.02,40.63766431834146,-74.01779673397562,New York,New York,11206
2883.03,40.638270908708336,-74.02470908824999,New York,New York,10010
2912.08,40.63822074186138,-74.01380798576237,New York,New York,11206
2923.01,40.6398678007973,-74.01979550143243,New York,New York,10040
2932.03,40.6394096813924,-74.02680027338818,New York,New York,10029
2951.05,40.63970261488398,-74.00897880845304,New York,New York,10010
2961.05,40.64015781106763,-74.01574359476813,New York,New York,10010
2971.02,40.63997699223529,-74.0232562142353,New York,New York,10069
3000.08,40.64077293876859,-74.01107853954547,New York,New York,10011
3007.05,40.64206022961778,-73.98105444564443,New York,New York,10069
3011.03,40.641284018448864,-74.01763112363068,New York,New York,10009
3019.02,40.64048329052,-74.02562210212,New York,New York,10011
3019.03,40.64245221471834,-74.02554689731114,New York,New York,10009
3038.08,40.6425228524589,-74.00607163287671,New York,New York,10009
3046.03,40.64382362371429,-73.97745453878261,New York,New York,10010
3050.03,40.64242604434194,-74.01335249096773,New York,New York,10009
3056.05,40.64357704212273,-73.98638938506818,New York,New York,10011
3084.05,40.64276606083459,-74.00948423258647,New York,New York,10005
3090.06,40.64283519079695,-73.97920623844163,New York,New York,11238
3093.07,40.64266508657789,-74.01688672740201,New York,New York,10011
3117.05,40.644782876181814,-74.00377751572402,New York,New York,10010
3125.09,40.64466563686745,-73.97453259080909,New York,New York,11238
3129.08,40.64335561837063,-74.01188496413985,New York,New York,11238
3135.04,40.644343078354844,-73.98426354698387,New York,New York,10011
3138.09,40.64450607364151,-74.02146223723585,New York,New York,10009
3161.02,40.64591716961582,-74.00567846289266,New York,New York,10011
3166.03,40.645086566323144,-73.97965623819213,New York,New York,10011
3169.07,40.6448902778107,-74.01455695241975,New York,New York,10011
3178.02,40.646376477612904,-74.02307231571776,New York,New York,10011
3192.05,40.64735821731752,-74.0009302307414,New York,New York,10039
3199.01,40.647711919453336,-73.97368092315111,New York,New York,10011
3202.06,40.646361223319275,-74.00930846234638,New York,New York,10011
3208.07,40.64600574339147,-73.98095917286047,New York,New York,10010
3211.06,40.64746189965967,-74.01886152959243,New York,New York,10069
3220.01,40.64647858079739,-74.02608569702615,New York,New York,10120
3230.01,40.64851797973684,-73.97052392136843,New York,New York,10120
3233.06,40.64709097911765,-74.00445608539009,New York,New York,10120
3240.15,40.64902269739892,-73.9767679744744,New York,New York,10010
3243.02,40.64912961431461,-74.0123490545955,New York,New York,10010
3253.01,40.649289819596156,-74.02009672092308,New York,New York,11206
3266.01,40.6481911030625,-74.00003800699687,New York,New York,10010
3272.01,40.64808429910903,-73.97244866413706,New York,New York,10120
3275.03,40.64914012667663,-74.00947347828533,New York,New York,10009
3280.04,40.6480049663996,-73.97937520618474,New York,New York,10009
3283.05,40.65015926250769,-74.01558442532308,New York,New York,10009
3303.01,40.64970387090443,-73.96779602851748,New York,New York,10009
3306.03,40.64997074124175,-74.00516912414285,New York,New York,10009
3312.07,40.65171285832046,-73.9759820154054,New York,New York,10009
3315.05,40.65119909469318,-74.01141641843182,New York,New York,10009
3344.02,40.65155990829308,-73.97219447523564,New York,New York,10009
3347.03,40.65136003693957,-74.00716229806042,New York,New York,10009
3353.04,40.6507658020145,-73.9776877898744,New York,New York,10009
3356.07,40.65230454450566,-74.01346013167901,New York,New York,10009
3376.02,40.65188299468221,-73.96528089740316,New York,New York,10009
3379.03,40.65261289121428,-74.00240167396429,New York,New York,10009
3385.06,40.652540794479194,-73.97256550108887,New York,New York,10009
3388.02,40.65247615097727,-74.00886730463637,New York,New York,10009
3394.03,40.651699713114944,-73.98123548087355,New York,New York,10009
3420.01,40.654147942058636,-74.00421550697395,New York,New York,10009
3426.02,40.65335558379325,-73.97628742140084,New York,New York,10009
3428.04,40.652894637107494,-74.01286591290557,New York,New York,10009
3439.03,40.65521660102241,-73.95640023861345,New York,New York,11206
3451.01,40.65412647611268,-74.00115910284507,New York,New York,11227
3457.03,40.654904916571205,-73.973243388856,New York,New York,10008
3460.01,40.65714644648624,-74.00865876042343,New York,New York,10458
3460.02,40.65573340042204,-74.00669287995842,New York,New York,10120
3460.04,40.65632217432433,-74.0096470254054,New York,New York,10105
3460.05,40.655749087150035,-74.00995333905594,New York,New York,10004
3480.04,40.655649215320366,-73.95963206047026,New York,New York,10120
3486.02,40.656664798279664,-73.93114629147458,New York,New York,10029
3492.04,40.655274552163796,-74.0030727584023,New York,New York,10010
3498.09,40.657278499677965,-73.97416948657934,New York,New York,10008
3504.02,40.65790457218182,-73.94738535113333,New York,New York,10010
3507.04,40.65666951875261,-73.98383680332752,New York,New York,10105
3512.03,40.65687940032064,-73.95333351124127,New York,New York,10029
3515.01,40.658011628043916,-73.98965047608108,New York,New York,10010
3520.01,40.65793818485092,-73.96048262052982,New York,New York,11206
3523.06,40.657005566570795,-73.99821899198673,New York,New York,10118
3526.06,40.6580734876,-73.93417145856,New York,New York,10029
3532.02,40.65915437068056,-74.00661020144445,New York,New York,10010
3535.02,40.657934836474816,-73.93966947221583,New York,New York,10009
3538.09,40.65631728684987,-73.97732028112793,New York,New York,10009
3544.02,40.65708801948786,-73.95001795216263,New York,New York,11206
3547.04,40.65850861131273,-73.98556449426546,New York,New York,10008
3552.09,40.65816129989881,-73.9567108843988,New York,New York,10120
3555.04,40.65953133236224,-73.99501149732653,New York,New York,11206
3564.04,40.65775711393358,-74.00115471632472,New York,New York,10040
3567.05,40.66034152258333,-73.93619140965,New York,New York,10040
3579.04,40.65951819251969,-73.98018758207722,New York,New York,10120
3585.06,40.65952175385714,-73.95041524296894,New York,New York,10009
3588.01,40.65904744440248,-73.98856037659574,New York,New York,10004
3593.01,40.66025581710876,-73.96042849040253,New York,New York,10010
3596.04,40.660101265788995,-73.9986137732324,New York,New York,10009
3599.01,40.66126454997015,-73.93169922468657,New York,New York,10120
3608.06,40.661548456186665,-73.93972859572666,New York,New York,11206
3611.02,40.65993667362298,-73.97748022779838,New York,New York,10120
3617.02,40.66104052961489,-73.94796387868286,New York,New York,10458
3620.02,40.66091459322199,-73.98305746447511,New York,New York,10029
3625.04,40.6603330636413,-73.95679184540941,New York,New York,10456
3625.07,40.661245930748315,-73.9535234929573,New York,New York,10004
3628.11,40.66021459428927,-73.9909318184824,New York,New York,10120
3633.08,40.66052130626046,-73.96257383943296,New York,New York,10010
3639.04,40.66176290205825,-73.93445740564077,New York,New York,10008
3648.06,40.66066770680423,-73.94241611543387,New York,New York,11211
3651.04,40.661099741597056,-73.97938673770301,New York,New York,10010
3657.06,40.66318037822127,-73.95072759574043,New York,New York,10456
3660.07,40.66091009408938,-73.98683127600793,New York,New York,10009
3665.06,40.66276351534992,-73.9567698410387,New York,New York,10019
3668.04,40.66257988607305,-73.99553298552173,New York,New York,10011
3680.04,40.662277462666665,-73.93764252502083,New York,New York,10011
3696.05,40.66308160034321,-73.95385914899506,New York,New York,10011
3699.07,40.66348520931644,-73.99098179659234,New York,New York,10069
3704.04,40.66364229223851,-73.96300473307286,New York,New York,10010
3704.08,40.664067752807384,-73.96021814453394,New York,New York,10011
3707.01,40.6626015902,-73.99859845555,New York,New York,10011
3722.04,40.665104930886216,-73.97635382733901,New York,New York,10011
3728.04,40.66402335365806,-73.947650935,New York,New York,11238
3731.11,40.66378983245287,-73.98395399931954,New York,New York,10030
3736.03,40.66586314021644,-73.95691545250138,New York,New York,10009
3736.04,40.664239704089844,-73.95750625096093,New York,New York,11238
3739.06,40.665483311847765,-73.99297552210237,New York,New York,10009
3742.11,40.66601162133065,-73.92840726020967,New York,New York,10011
3759.07,40.66479138558716,-73.94266905355659,New York,New York,10002
3762.08,40.666222539783774,-73.98196012267934,New York,New York,10010
3768.02,40.66640871408411,-73.95343768404673,New York,New York,10010
3771.06,40.66630288222035,-73.98898788464498,New York,New York,10010
3776.05,40.66644334496683,-73.96058668239088,New York,New York,10010
3779.02,40.6661445482937,-73.99556530906294,New York,New York,10002
3782.03,40.66619218637069,-73.93164082824138,New York,New York,10011
3791.02,40.66671214494771,-73.93970338482353,New York,New York,11238
3803.05,40.66634763996318,-73.9854326721473,New York,New York,10011
3803.09,40.668135179050594,-73.98377095175397,New York,New York,10011
3811.05,40.66622165586363,-73.99249020858409,New York,New York,11218
3814.01,40.66601656712838,-73.92602226893919,New York,New York,10011
3822.08,40.66734291493421,-73.934031407125,New York,New York,10011
3831.03,40.6668783480641,-73.94246981929487,New York,New York,10011
3834.10,40.66863836051762,-73.97989025210754,New York,New York,10011
3842.08,40.668644610972,-73.98701726916015,New York,New York,11238
3845.05,40.66852948229412,-73.92288739242646,New York,New York,10009
3847.04,40.667949254402636,-73.95874287242368,New York,New York,10025
3850.03,40.668579558527696,-73.99331143058018,New York,New York,10009
3853.02,40.668459420876815,-73.9281683223261,New York,New York,10009
3856.03,40.66870007488397,-73.96638215329281,New York,New York,10009
3862.07,40.66930549765413,-73.93687515476691,New York,New York,10011
3865.05,40.66812972229541,-73.97358258825287,New York,New York,10011
3871.02,40.66937506086681,-73.94524100300677,New York,New York,10011
3874.01,40.67048022403712,-73.98209688674851,New York,New York,10010
3879.04,40.66919892613904,-73.955344506099,New York,New York,10011
3882.01,40.66861300946635,-73.99045277353846,New York,New York,10009
3885.06,40.6701036638644,-73.92540264084747,New York,New York,10011
3887.03,40.66867770117657,-73.9617931145264,New York,New York,10011
3893.03,40.66876062219436,-73.93369423203762,New York,New York,10011
3902.06,40.6695842685344,-73.9424556659232,New York,New York,10010
3905.15,40.670378883547805,-73.97835686266987,New York,New York,10010
3911.05,40.669668980820475,-73.9502558791181,New York,New York,10010
3914.02,40.670500257625,-73.98544419180587,New York,New York,11238
3917.03,40.669920095962496,-73.92006696081249,New York,New York,11206
3919.07,40.67078012389185,-73.95763870475375,New York,New York,10011
3922.02,40.67190103338004,-73.9936176456046,New York,New York,10011
3925.03,40.671310479719104,-73.92827536808988,New York,New York,10010
3928.08,40.67166220734631,-73.96317066834398,New York,New York,11238
3931.09,40.67141608835039,-74.00135511152362,New York,New York,10069
3934.06,40.67162034797368,-73.93379749432631,New York,New York,10010
3934.07,40.67248882100633,-73.93643614450001,New York,New York,10010
3940.04,40.67269910844599,-74.0088728971952,New York,New York,10010
3943.03,40.67113845504373,-73.94226495496794,New York,New York,10009
3946.07,40.672776525288256,-73.9798002500918,New York,New York,10044
3950.03,40.67153525370161,-73.91437935029839,New York,New York,10011
3952.07,40.67076818055702,-73.95068318110803,New York,New York,10009
3955.05,40.6705381823888,-73.98874657139248,New York,New York,10011
3958.02,40.67096025057895,-73.92220588678947,New York,New York,10011
3960.01,40.67218130171139,-73.96086756392745,New York,New York,10011
3966.01,40.67050344187151,-73.93073265439665,New York,New York,11378
3966.03,40.672430212986484,-73.93097366812839,New York,New York,10120
3972.08,40.67251727267935,-74.00494351384783,New York,New York,10008
3975.02,40.673015357747936,-73.93897152958264,New York,New York,10004
3978.13,40.671223981838565,-73.97486910086815,New York,New York,11206
3981.10,40.67361827156975,-74.01198224595598,New York,New York,11227
3984.02,40.67237124981848,-73.94766233904785,New York,New York,10009
3987.06,40.67280772094347,-73.98353216877047,New York,New York,10010
3991.04,40.67262232545882,-73.9197839964,New York,New York,10008
3993.03,40.67271072093743,-73.9540955234369,New York,New York,10004
3996.01,40.672591068133386,-73.98978322862996,New York,New York,10004
3999.06,40.672029575761904,-73.9254394015,New York,New York,10459
4001.09,40.673737238614855,-73.96320276933102,New York,New York,10009
4007.01,40.67355487347239,-73.93362501188344,New York,New York,10009
4010.01,40.6731425849565,-73.96912024398404,New York,New York,10009
4010.13,40.67499592721629,-73.97113687929719,New York,New York,10120
4010.15,40.67297175610773,-73.97086103403835,New York,New York,10120
4013.08,40.67477650054015,-74.00753468339416,New York,New York,10029
4016.03,40.673116330366604,-73.94190624500767,New York,New York,10004
4019.06,40.674090919618614,-73.97871077230582,New York,New York,11213
4023.01,40.67313685088889,-73.91385543111112,New York,New York,10009
4023.05,40.67567921638614,-73.91397989338614,New York,New York,10009
4025.02,40.674295879156496,-73.95031493145756,New York,New York,10009
4028.03,40.67506167690724,-73.98773223122511,New York,New York,10009
4028.04,40.673714637240316,-73.98565350074149,New York,New York,11227
4031.05,40.67372016812987,-73.92195690197403,New York,New York,10009
4033.06,40.67418198042242,-73.95647781858793,New York,New York,11227
4039.04,40.674046909987496,-73.9276772948,New York,New York,10023
4042.08,40.67396559438984,-73.96715953008963,New York,New York,10004
4045.01,40.674334361842554,-74.00195130964681,New York,New York,11213
4048.03,40.67521925610001,-73.93584343948461,New York,New York,10120
4051.01,40.67516193560643,-73.97523021059136,New York,New York,10008
4054.02,40.67534006465363,-74.01008309751955,New York,New York,10010
4055.04,40.67378142441177,-73.90856459948039,New York,New York,10008
4057.04,40.67418226083042,-73.94448760026748,New York,New York,10008
4060.09,40.67519064968156,-73.98150724852648,New York,New York,10023
4064.03,40.67424346169565,-73.91652778284057,New York,New York,10023
4066.15,40.67638227060624,-73.95293248821768,New York,New York,10023
4072.02,40.67469571378572,-73.92516627560715,New York,New York,10008
4074.14,40.67649063210454,-73.9594425066685,New York,New York,11227
4077.04,40.674675764905494,-73.99786332536512,New York,New York,10004
4077.07,40.67636546625872,-73.99872252915186,New York,New York,10010
4080.01,40.676878384723075,-73.93323430551794,New York,New York,10023
4086.05,40.67698011398378,-74.00648068716217,New York,New York,10004
4086.06,40.676393857120566,-74.00322175292199,New York,New York,10029
4087.01,40.676243232868416,-73.90350996031579,New York,New York,11101
4089.01,40.67560899183408,-73.94145371556054,New York,New York,10004
4095.03,40.67739477206278,-74.01270938107736,New York,New York,10044
4095.10,40.675851500849994,-74.01471157440615,New York,New York,10011
4096.08,40.67485440496826,-73.91126526534921,New York,New York,10010
4098.06,40.675152461242334,-73.94717643773576,New York,New York,10011
4101.17,40.67674297660558,-73.98326205494602,New York,New York,10010
4105.01,40.676078665153845,-73.92170568533847,New York,New York,11218
4107.05,40.67580724520894,-73.95616262528381,New York,New York,11238
4107.13,40.677597988999,-73.95567517572864,New York,New York,11238
4110.10,40.67770456693394,-73.99357698631832,New York,New York,10002
4113.01,40.676396883649346,-73.92745357702597,New York,New York,10005
4116.08,40.67695932460743,-73.96577257275482,New York,New York,10010
4119.04,40.6783442591121,-74.00014370864575,New York,New York,11238
4120.02,40.677120813723405,-73.90085782246808,New York,New York,10002
4122.03,40.676873914163934,-73.93609611699453,New York,New York,10010
4124.04,40.680399953993955,-73.94769393730368,New York,New York,10120
4125.07,40.67758972076647,-73.97325928430567,New York,New York,10013
4128.08,40.67776540238572,-74.00943770615,New York,New York,10013
4129.10,40.67737378160869,-73.90829475770651,New York,New York,10009
4131.03,40.676722261332706,-73.94435116560871,New York,New York,11206
4134.06,40.6765253438692,-73.9784515294495,New York,New York,10009
4137.10,40.6772545780266,-74.01568128168084,New York,New York,11206
4137.14,40.67820297517767,-74.01708092600553,New York,New York,10009
4138.04,40.67858542109677,-73.91368442381936,New York,New York,10004
4140.03,40.677617398912844,-73.9495998882351,New York,New York,10120
4143.04,40.67701795546118,-73.98650619864597,New York,New York,10004
4146.02,40.677190452677685,-73.92282913313224,New York,New York,10010
4148.07,40.679182564496365,-73.95883234905455,New York,New York,10009
4151.01,40.67869484111094,-73.99599743428816,New York,New York,10009
4154.02,40.676656282774196,-73.93052241755645,New York,New York,10023
4157.10,40.67943288982313,-73.96801068139956,New York,New York,10023
4161.01,40.67862104719643,-73.90368927171428,New York,New York,10004
4166.08,40.67931013061706,-73.97515411460253,New York,New York,10008
4169.04,40.67906590193499,-74.01119985507839,New York,New York,10004
4170.08,40.678729624759995,-73.91107524177333,New York,New York,10105
4172.04,40.67954331111948,-73.9471154722909,New York,New York,10009
4175.14,40.679264532953155,-73.98151424010788,New York,New York,11102
4175.15,40.67727035919219,-73.98275429976653,New York,New York,11218
4179.03,40.67853802046826,-73.91645688875397,New York,New York,11249
4181.10,40.680123844282875,-73.95357933244024,New York,New York,11216
4184.07,40.67860375680751,-73.99033603128404,New York,New York,11216
4187.04,40.67923688887368,-73.92589218802105,New York,New York,10016
4190.06,40.67804351733622,-73.96236766120472,New York,New York,10038
4193.14,40.68097020170908,-73.99908336435053,New York,New York,11249
4196.01,40.679742848504,-73.934650014536,New York,New York,10010
4196.05,40.68011910493125,-73.93168706873543,New York,New York,10167
4199.12,40.6810058047364,-73.97100602648536,New York,New York,11225
4199.13,40.67909945372769,-73.97177698968324,New York,New York,10115
4202.04,40.67941379989935,-74.00787064607793,New York,New York,10032
4203.04,40.67945687316001,-73.90476088760667,New York,New York,10024
4205.06,40.679152716632906,-73.9414559306944,New York,New York,10038
4208.01,40.67895362828906,-73.9784971825744,New York,New York,10016
4212.01,40.680183015053686,-73.91141256463088,New York,New York,11249
4214.03,40.68099280228924,-73.95002036246713,New York,New York,10016
4217.02,40.680231262604295,-73.98435632311998,New York,New York,10016
4217.06,40.67977462832492,-73.98471558750742,New York,New York,10038
4220.02,40.67924494295041,-73.92192580357852,New York,New York,10038
4222.02,40.680322800981564,-73.95576099447355,New York,New York,10038
4225.14,40.68062425603669,-73.99480395262945,New York,New York,10010
4228.02,40.67943197958846,-73.92992253700577,New York,New York,11102
4228.06,40.68044957398765,-73.92839543851234,New York,New York,10115
4231.04,40.680501751951525,-73.96467671700938,New York,New York,11378
4237.01,40.68145774323762,-73.93490349567656,New York,New York,10016
4237.02,40.67999756470166,-73.93846941487845,New York,New York,10016
4243.01,40.68121898060502,-74.00864358214383,New York,New York,10016
4244.06,40.68137377590164,-73.90751866241803,New York,New York,10016
4246.02,40.68078314945737,-73.94611405564923,New York,New York,10010
4249.10,40.68177747534884,-73.97986055582787,New York,New York,10158
4253.02,40.681504787588395,-73.91414276678155,New York,New York,10016
4255.05,40.68216572371582,-73.9539732497395,New York,New York,10459
4258.07,40.68199068525169,-73.99077649267257,New York,New York,10038
4261.03,40.68141004340698,-73.92565524686628,New York,New York,10016
4263.12,40.681853543894604,-73.95937970455148,New York,New York,11217
4266.03,40.68314576619802,-73.99782950582461,New York,New York,10010
4278.03,40.68259537542699,-73.93803070221762,New York,New York,10158
4281.08,40.68096824777236,-73.97571727450946,New York,New York,10451
4285.09,40.683245510992904,-73.91167935826272,New York,New York,10158
4290.06,40.68277142729743,-73.98260612501346,New York,New York,10032
4293.05,40.681582252661336,-73.91957008291693,New York,New York,10016
4298.05,40.68294157649526,-73.99321961363823,New York,New York,10008
4301.04,40.68375062796825,-73.92608285503572,New York,New York,10010
4301.07,40.68273118346842,-73.92928424172631,New York,New York,10008
4307.13,40.68279429145303,-73.99988751675929,New York,New York,11227
4310.06,40.6828278991335,-73.93486461986399,New York,New York,10009
4317.05,40.68278384178698,-73.90615834534319,New York,New York,10008
4319.07,40.68238471736824,-73.94408505059657,New York,New York,10456
4322.06,40.68258292625326,-73.97988302549172,New York,New York,10023
4325.03,40.68489547711644,-73.91492889687672,New York,New York,11233
4327.09,40.68402376659584,-73.94978778525879,New York,New York,10008
4330.09,40.68434987584211,-73.9890014046875,New York,New York,11227
4334.02,40.68496619075977,-73.92289318675978,New York,New York,11206
4336.01,40.68456805175559,-73.95880872511313,New York,New York,11227
4339.01,40.685123742384306,-73.9943490331338,New York,New York,10009
4342.04,40.68488656164529,-73.92928365173147,New York,New York,10009
4345.11,40.68326113881613,-73.96601107474415,New York,New York,10009
4348.07,40.68303661863817,-74.0034590160198,New York,New York,10069
4354.05,40.68538267142957,-73.97430219935109,New York,New York,10009
4354.07,40.68382304223606,-73.97636159727467,New York,New York,10010
4357.01,40.68460398203703,-73.90924956529167,New York,New York,10009
4362.04,40.685488241400435,-73.98293695105984,New York,New York,10002
4366.01,40.685684104706034,-73.91568191818592,New York,New York,10002
4366.10,40.68332700030702,-73.91709091539911,New York,New York,10005
4368.05,40.68514886801503,-73.95382200514224,New York,New York,10002
4371.01,40.68541189312633,-73.99125601319128,New York,New York,10010
4374.01,40.68513243270419,-74.02534949847205,New York,New York,11218
4377.04,40.68491069318253,-73.96305414548647,New York,New York,10460
4380.08,40.684725050310824,-73.99917280752595,New York,New York,10009
4383.06,40.684559118372995,-73.93218643122654,New York,New York,10069
4386.05,40.68418688158539,-73.96929258523339,New York,New York,11213
4392.04,40.68515134436901,-73.94113550890722,New York,New York,10278
4395.07,40.68507287115649,-73.97783194398724,New York,New York,10002
4399.03,40.68651250233216,-73.91321969823322,New York,New York,10002
4404.10,40.68495091531927,-73.98621407483414,New York,New York,10011
4408.07,40.684521795296455,-73.92007552297787,New York,New York,10002
4413.08,40.68637942538358,-73.99380954998648,New York,New York,11218
4416.10,40.68712716880576,-73.93009810803957,New York,New York,10011
4419.03,40.686494073040244,-73.9656255655019,New York,New York,10010
4422.04,40.6859421287298,-74.00242923168938,New York,New York,10002
4422.05,40.6876612911732,-74.00161728465154,New York,New York,10039
4425.02,40.68628804871795,-73.93576114256855,New York,New York,10451
4428.02,40.68755849892786,-73.97267096139831,New York,New York,11238
4432.10,40.68820288231878,-73.90795579601746,New York,New York,10009
4434.06,40.6862031215988,-73.94470137575524,New York,New York,10002
4437.01,40.686831976435705,-73.97969168223827,New York,New York,10009
4437.09,40.68740808997523,-73.98175685224626,New York,New York,10069
4440.02,40.68706760134611,-74.01674812217837,New York,New York,10002
4441.06,40.68694259500322,-73.91689098406762,New York,New York,10030
4446.01,40.68678227246595,-73.99067309464473,New York,New York,10002
4446.03,40.68787178301259,-73.98936479652801,New York,New York,10009
4446.05,40.6864287929721,-73.9875634482221,New York,New York,10002
4450.06,40.68707931996063,-73.92334628951181,New York,New York,10069
4452.01,40.68905344888636,-73.96027112058248,New York,New York,10004
4452.03,40.6867669650722,-73.95927199559567,New York,New York,10004
4455.10,40.68826076217142,-73.9954792459106,New York,New York,10010
4455.11,40.6861811435898,-73.99647449334516,New York,New York,10004
4458.06,40.6883768250578,-73.9330765427081,New York,New York,10008
4461.01,40.68761774449207,-73.96968387220998,New York,New York,10120
4461.04,40.68941789753808,-73.96885035463144,New York,New York,11238
4467.03,40.68671634670946,-73.93903534185472,New York,New York,10010
4470.09,40.687038634664745,-73.97670866041973,New York,New York,10009
4474.01,40.688605614927035,-73.912265254206,New York,New York,10002
4476.03,40.69008777744444,-73.94792390725519,New York,New York,10011
4479.10,40.688646993464204,-73.98524756451552,New York,New York,10009
4483.10,40.68820971809644,-73.91962071697773,New York,New York,10009
4488.08,40.69021329070414,-73.99206995713261,New York,New York,10009
4491.09,40.68815193552854,-73.92691231251116,New York,New York,10002
4494.04,40.688533029902565,-73.96478337358985,New York,New York,10009
4497.09,40.689385688027,-73.99949580385638,New York,New York,11101
4500.07,40.6897327389977,-73.93355984083219,New York,New York,10002
4507.07,40.68908611517677,-73.90510657079547,New York,New York,11213
4510.04,40.68950331911635,-73.9420435653173,New York,New York,11238
4513.06,40.68989470294857,-73.98100882563365,New York,New York,11238
4513.09,40.690096831907,-73.97878041932601,New York,New York,10030
4517.03,40.68991854710661,-73.91455568118549,New York,New York,10002
4519.02,40.68834370465605,-73.95094160841037,New York,New York,10010
4519.04,40.69072362206991,-73.95132869762712,New York,New York,10010
4522.07,40.6891543251184,-73.98852937741201,New York,New York,10002
4526.01,40.690504474600864,-73.92349334130586,New York,New York,10009
4528.01,40.69064532838555,-73.95747880858596,New York,New York,10010
4531.05,40.69093815873626,-73.99612009386374,New York,New York,10002
4543.07,40.689939487867235,-73.93648872754389,New York,New York,10010
4546.04,40.68981160611269,-73.97489416001534,New York,New York,10009
4546.05,40.69182092392326,-73.973735373787,New York,New York,10010
4550.05,40.689312291686704,-73.90954018320569,New York,New York,10010
4553.04,40.691284093427136,-73.94524029750418,New York,New York,10010
4556.08,40.69059486938723,-73.98340689986848,New York,New York,10030
4560.01,40.69123510316081,-73.91690511871104,New York,New York,10010
4565.07,40.69105221066394,-73.99204597479236,New York,New York,10011
4568.01,40.69204818900403,-73.92616033117069,New York,New York,10011
4576.11,40.69200860706644,-73.93246542337049,New York,New York,10009
4582.08,40.6904612391,-73.90378652619286,New York,New York,10010
4587.02,40.69178466294862,-73.97875253332607,New York,New York,10011
4590.01,40.69232346131876,-74.01486355019621,New York,New York,10011
4591.04,40.69057509789059,-73.91184712555726,New York,New York,10278
4596.05,40.692218769054264,-73.98432482355457,New York,New York,10009
4596.09,40.69235680362696,-73.98629750698774,New York,New York,10011
4600.09,40.69148154972925,-73.92149003946442,New York,New York,10010
4605.04,40.69242224406901,-73.99333684244014,New York,New York,10010
4608.01,40.69351972173112,-73.9285783398711,New York,New York,10009
4611.03,40.69195710646074,-73.96536839108455,New York,New York,10008
4614.04,40.6916699486761,-74.0000252456655,New York,New York,11227
4615.01,40.69339888090131,-73.90062482135527,New York,New York,10009
4617.01,40.69238633585752,-73.93703599003958,New York,New York,10009
4620.02,40.69305430404867,-73.97180000612916,New York,New York,10105
4623.02,40.693018641561956,-73.90825945050722,New York,New York,10023
4628.05,40.69196302491022,-73.9813055195754,New York,New York,10009
4628.07,40.69354145528793,-73.98196211516641,New York,New York,10010
4632.10,40.6929533888906,-73.91602807711249,New York,New York,10120
4634.02,40.6933068674627,-73.9538225035019,New York,New York,10008
4637.06,40.692474708269835,-73.98950796063257,New York,New York,10120
4640.01,40.693584761024475,-73.92527493737937,New York,New York,10459
4645.04,40.69396867548773,-73.99468203922409,New York,New York,10459
4645.09,40.69511547424739,-73.99594452146921,New York,New York,10120
4648.03,40.69383477401953,-73.93116670646855,New York,New York,10010
4651.02,40.69327192378574,-73.96889600938916,New York,New York,10009
4654.01,40.6952004350443,-73.90309361129746,New York,New York,10008
4656.03,40.693405118180095,-73.93988730191113,New York,New York,11213
4659.02,40.693277128298995,-73.97696638060022,New York,New York,10009
4663.02,40.69388411971343,-73.9097650832179,New York,New York,10008
4663.06,40.69547748148243,-73.91162051690095,New York,New York,10120
4665.02,40.69435713647688,-73.94625564977117,New York,New York,10002
4668.08,40.69482494039068,-73.98357200450405,New York,New York,10039
4672.01,40.69546607911648,-73.91958891050852,New York,New York,10010
4677.01,40.695944919830765,-73.9901464084664,New York,New York,10002
4677.06,40.69420409162225,-73.99224484234169,New York,New York,10009
4680.05,40.69500949027744,-73.92822545163473,New York,New York,10002
4683.02,40.69360877879921,-73.9622319161423,New York,New York,10002
4687.03,40.695547672177085,-73.89914716038543,New York,New York,10011
4689.03,40.69547205900344,-73.93221277803794,New York,New York,10009
4689.08,40.694611156879155,-73.93429688822053,New York,New York,10009
4692.01,40.69569089874777,-73.97128602148771,New York,New York,10010
4695.04,40.694688027589194,-73.9066641813946,New York,New York,11238
4697.01,40.69622469626433,-73.9436947722484,New York,New York,10011
4700.06,40.696089109087985,-73.97800112011336,New York,New York,10002
4707.03,40.695396799864426,-73.94961021127766,New York,New York,10005
4707.04,40.6952661095581,-73.95239457048591,New York,New York,10010
4710.06,40.69507820164346,-73.98715100586973,New York,New York,10009
4713.01,40.69675402990022,-73.92299436188692,New York,New York,11213
4715.01,40.694540478531295,-73.9580296652374,New York,New York,10010
4718.08,40.69535774826106,-73.9934790502905,New York,New York,10002
4719.04,40.69715890840104,-73.89358364307813,New York,New York,10011
4721.01,40.69673316390513,-73.92805028457437,New York,New York,10009
4724.03,40.69612879254355,-73.96749303782943,New York,New York,10009
4727.06,40.696616501226416,-73.90059176588679,New York,New York,10023
4729.01,40.69681879670373,-73.93757335167719,New York,New York,10008
4732.04,40.69577623719699,-73.97354421901505,New York,New York,10120
4732.08,40.69775886022181,-73.97372761032867,New York,New York,10105
4735.03,40.698094873496665,-73.90902949302667,New York,New York,11213
4735.16,40.6972211455679,-73.90673598830247,New York,New York,10010
4743.04,40.69713005161888,-73.91567823088462,New York,New York,10105
4748.07,40.69624475373102,-73.99142336680856,New York,New York,10120
4751.01,40.69783717091815,-73.9262550580783,New York,New York,11213
4756.04,40.69848420044732,-73.99717062619214,New York,New York,10120
4757.06,40.69719842930555,-73.89810166030556,New York,New York,10459
4759.02,40.69758237650604,-73.93097846819649,New York,New York,10459
4762.04,40.6979581600554,-73.96986596729009,New York,New York,10459
4762.05,40.69796504967999,-73.97075767505633,New York,New York,10459
4765.07,40.69814338309656,-73.9027460595793,New York,New York,10120
4768.02,40.69861445434776,-73.94137437763925,New York,New York,10009
4775.01,40.69802199117303,-73.91272052948601,New York,New York,10009
4781.03,40.69766486645335,-73.9847696495795,New York,New York,10120
4781.05,40.69846689666406,-73.98378982141212,New York,New York,10009
4784.02,40.698547852508646,-73.91890858191931,New York,New York,10009
4789.03,40.697592500554585,-73.99346832348228,New York,New York,11213
4792.03,40.70003196280315,-73.9283858272441,New York,New York,10105
4798.02,40.69920740608772,-73.89792603292983,New York,New York,10120
4798.10,40.6988283206875,-73.900675039125,New York,New York,10120
4801.04,40.697515112467876,-73.93585992270113,New York,New York,11227
4804.02,40.69982383843738,-73.97137791348699,New York,New York,11206
4807.02,40.700671027646905,-73.90743574263145,New York,New York,11227
4812.02,40.69840180872496,-73.98072119955289,New York,New York,10009
4812.04,40.69956485346891,-73.97983523193709,New York,New York,10023
4816.02,40.69945538893088,-73.9133246680046,New York,New York,10120
4816.05,40.69905092315464,-73.91519320636597,New York,New York,10009
4818.03,40.700300169763864,-73.95032163663709,New York,New York,10120
4821.03,40.700120266791835,-73.98617529814722,New York,New York,11206
4821.06,40.69990353278254,-73.98971743806386,New York,New York,10010
4821.10,40.70080852672693,-73.98870323250812,New York,New York,10023
4824.03,40.69932051024822,-73.92302651944063,New York,New York,10029
4829.01,40.700408526672305,-73.99546971464798,New York,New York,10004
4830.02,40.70057608690132,-73.894225192875,New York,New York,10105
4832.07,40.701109698747906,-73.93038200884243,New York,New York,10120
4837.03,40.69971066937572,-73.9021505939711,New York,New York,10105
4840.06,40.700977164466885,-73.93918544701766,New York,New York,10010
4843.01,40.69997012063963,-73.97445389413866,New York,New York,10120
4846.01,40.70121816062809,-74.01236534582993,New York,New York,10009
4847.03,40.69986054746677,-73.91170141405736,New York,New York,10008
4850.04,40.69957911701682,-73.94708950816819,New York,New York,10009
4853.06,40.701266235814494,-73.98470142805746,New York,New York,10009
4856.05,40.701095407669605,-73.91793568361484,New York,New York,10008
4861.05,40.70032219978563,-73.99158488719587,New York,New York,10023
4862.04,40.701204492526884,-73.89044839398925,New York,New York,10010
4862.07,40.6995228912907,-73.88872025786046,New York,New York,10010
4864.09,40.70164531443633,-73.92750391311797,New York,New York,10459
4871.02,40.70069336365678,-73.89902973676695,New York,New York,10009
4873.08,40.70109280908219,-73.93319551003044,New York,New York,10459
4880.11,40.70182166948048,-73.90627763615315,New York,New York,10009
4883.03,40.701672345006024,-73.94373540108124,New York,New York,10013
4889.06,40.70187036337756,-74.01393749120098,New York,New York,11215
4890.11,40.701116712180664,-73.91422543897455,New York,New York,10009
4895.03,40.70244889926138,-73.98688368118313,New York,New York,10009
4895.09,40.7013596606895,-73.98671782764846,New York,New York,11215
4895.15,40.7013065633959,-73.98771810308574,New York,New York,10013
4898.02,40.70273281728395,-73.92098786500706,New York,New York,10019
4903.08,40.70276342375574,-73.99382382212212,New York,New York,10120
4903.09,40.702742719119236,-73.99252914391147,New York,New York,10009
4904.03,40.70202907478788,-73.89290498628789,New York,New York,10009
4906.07,40.70297436565479,-73.92998191142539,New York,New York,10013
4912.10,40.70227940950545,-73.9014703365309,New York,New York,10016
4914.03,40.70078429526308,-73.93642733062282,New York,New York,10016
4920.13,40.701899473299015,-74.01088180901489,New York,New York,10038
4921.04,40.701551972910146,-73.90876539394647,New York,New York,10016
4927.04,40.7022511857359,-73.98256667662785,New York,New York,10009
4931.05,40.70352943735986,-73.91784361964706,New York,New York,10153
4936.21,40.70372380679088,-73.9907089181279,New York,New York,10019
4939.07,40.70203343680854,-73.92376087892755,New York,New York,11215
4945.06,40.703106461978145,-73.89545994919673,New York,New York,11216
4947.04,40.702788449874056,-73.93329967376323,New York,New York,10009
4953.04,40.703555049523274,-74.00669679084109,New York,New York,10009
4954.07,40.70408922049,-73.904068816795,New York,New York,11225
4956.02,40.70320381584288,-73.94063883080406,New York,New York,11222
4962.01,40.7046700080093,-74.01359832893212,New York,New York,10009
4962.02,40.70369722701763,-74.01316174692172,New York,New York,10120
4962.08,40.703670203847935,-74.01161371529386,New York,New York,10009
4963.13,40.70462509856098,-73.91053335595393,New York,New York,11216
4965.01,40.704116631842574,-73.9481907491929,New York,New York,10009
4968.03,40.70285984026584,-73.98467489071673,New York,New York,10009
4971.01,40.704896698271185,-73.91988867637005,New York,New York,10120
4977.03,40.703915149457146,-73.89115327254285,New York,New York,10120
4979.07,40.70441601140614,-73.92833104324008,New York,New York,10019
4985.09,40.704991550192304,-73.89963735065383,New York,New York,10009
4987.06,40.70449384516579,-73.93503761024957,New York,New York,10153
4990.02,40.70527958694377,-73.9708538576706,New York,New York,10009
4993.02,40.704733089241515,-74.00926661406156,New York,New York,10111
4993.13,40.70343057681349,-74.00788603785237,New York,New York,10009
4993.15,40.70474931795254,-74.00799461772617,New York,New York,10009
4994.10,40.704108648406475,-73.90737076563309,New York,New York,11222
4996.08,40.70510741764362,-73.94407347096916,New York,New York,10019
5001.08,40.70569850933395,-74.01678426687621,New York,New York,10019
5002.09,40.705755341954706,-73.91294350974914,New York,New York,10009
5004.02,40.7053837977956,-73.94976986668448,New York,New York,10009
5010.02,40.70560285571049,-73.9215364393007,New York,New York,10033
5018.06,40.70542477703211,-73.92982257854094,New York,New York,10009
5021.05,40.706497276332406,-73.9682893663652,New York,New York,10456
5024.10,40.70650918895102,-74.00553767553335,New York,New York,10009
5025.02,40.705542323678735,-73.90248088129864,New York,New York,10009
5027.02,40.70554459585539,-73.93936433601961,New York,New York,10019
5033.01,40.70606226500357,-74.01310517572101,New York,New York,10009
5034.03,40.70555421852231,-73.90957826620632,New York,New York,10019
5036.06,40.705837643595686,-73.94644851000719,New York,New York,10019
5043.06,40.70638444657522,-73.9194568080059,New York,New York,10019
5045.05,40.706881387679196,-73.95441453919783,New York,New York,10153
5051.01,40.70719384088934,-73.92375660804993,New York,New York,10009
5051.02,40.70538190128045,-73.92538079420031,New York,New York,10019
5057.07,40.70574882049743,-73.89678182913333,New York,New York,10019
5057.09,40.70806819284946,-73.89547361358602,New York,New York,10019
5059.02,40.70623998987166,-73.9339036986016,New York,New York,10153
5065.04,40.708608554063495,-74.00719989306614,New York,New York,10019
5065.10,40.707103486012585,-74.0073112455014,New York,New York,10019
5065.12,40.70719335841315,-74.00887553225954,New York,New York,10019
5065.14,40.70836298533367,-74.00497389149821,New York,New York,10019
5066.03,40.70692607635107,-73.90626110802482,New York,New York,10019
5068.02,40.707679276745544,-73.94016953388976,New York,New York,10019
5073.07,40.70809830197237,-74.01355159269016,New York,New York,10019
5074.08,40.707959905303106,-73.91094863379534,New York,New York,10009
5076.04,40.71,-73.95,New York,New York,10009
5082.08,40.70904212947619,-73.92155559140136,New York,New York,10009
5084.03,40.70709526426174,-73.95797023808099,New York,New York,10120
5090.06,40.70687244245536,-73.92849726673215,New York,New York,10013
5093.01,40.70850472024454,-73.96409612664408,New York,New York,10009
5096.12,40.707578462813466,-74.0011051205811,New York,New York,10111
5097.02,40.708835226532166,-73.90178183982457,New York,New York,10019
5099.02,40.710215802584905,-73.93734333279536,New York,New York,10010
5099.03,40.707153034600005,-73.93580488526,New York,New York,10005
5105.01,40.70900007990147,-74.01042581359609,New York,New York,10009
5106.04,40.7096805788288,-73.90785816021739,New York,New York,10010
5108.01,40.70870674924327,-73.9448553475363,New York,New York,10009
5114.06,40.708350893381926,-74.01714565237693,New York,New York,10010
5115.01,40.708646909327584,-73.91499529774384,New York,New York,10009
5115.05,40.70978382788347,-73.91729232612195,New York,New York,10008
5117.05,40.70876604314388,-73.95095166414002,New York,New York,10009
5123.07,40.70867487013027,-73.92581081148275,New York,New York,10009
5125.03,40.71043142067462,-73.9608651411638,New York,New York,10120
5125.07,40.70924513163261,-73.96061559868033,New York,New York,10009
5128.04,40.71115874742572,-73.99682184131822,New York,New York,10009
5129.01,40.70928246360336,-73.89445645269832,New York,New York,10120
5134.09,40.71,-73.97,New York,New York,10009
5137.10,40.71142777520036,-74.00557772836093,New York,New York,10009
5137.11,40.70961808452256,-74.00663956772047,New York,New York,10009
5137.13,40.7103353704404,-74.0043711682101,New York,New York,10023
5140.06,40.70992266756969,-73.94008332693029,New York,New York,10023
5145.02,40.70928045684298,-74.0132903982462,New York,New York,10010
5146.03,40.71001546560664,-73.91113530086967,New York,New York,10009
5148.03,40.71035428232758,-73.94703753404166,New York,New York,10120
5156.05,40.70935466729457,-73.956105682247,New York,New York,10105
5159.04,40.71174995135344,-73.99193309902888,New York,New York,10120
5159.07,40.709935435269166,-73.99157909616405,New York,New York,10004
5160.01,40.71225615380646,-73.89109728038248,New York,New York,10459
5164.05,40.71039524491425,-73.96529034731599,New York,New York,10120
5167.06,40.71117330041219,-74.00017441047315,New York,New York,10004
5170.01,40.71066670779055,-73.93375299424434,New York,New York,10009
5175.08,40.71107653165898,-74.00946254131462,New York,New York,10009
5176.04,40.7107096009004,-73.90526715773306,New York,New York,10009
5178.06,40.71184966698788,-73.94401709753635,New York,New York,10120
5181.04,40.712206271420015,-73.97943730906127,New York,New York,10105
5184.08,40.711517067525676,-74.01479808673984,New York,New York,11213
5187.03,40.71167476200456,-73.9514129757594,New York,New York,10009
5190.07,40.712700152693984,-73.98769564423878,New York,New York,10029
5190.09,40.71143318630373,-73.98671710315328,New York,New York,10105
5195.06,40.71064516129032,-73.96,New York,New York,10008
5198.04,40.710767254438345,-73.99401204145055,New York,New York,10009
5204.05,40.71288819227798,-73.96592922064731,New York,New York,10459
5207.01,40.712734357552335,-74.00460971970672,New York,New York,10029
5210.01,40.713227689783956,-73.93894506757563,New York,New York,10009
5216.04,40.71292423687992,-74.01019621954141,New York,New York,10008
5216.06,40.71223524716142,-74.01046530920115,New York,New York,10010
5217.03,40.71299680993333,-73.90967375158222,New York,New York,10009
5225.02,40.71245581385153,-73.91874425474671,New York,New York,10008
5225.04,40.71335011434404,-73.91568931762843,New York,New York,10008
5230.02,40.71329303380048,-73.99010609545142,New York,New York,10162
5235.05,40.71260611665288,-73.96268886798357,New York,New York,11227
5235.10,40.71,-73.96,New York,New York,10120
5238.05,40.71307840606699,-73.99851305857702,New York,New York,10009
5241.02,40.714298715129026,-73.93321221402418,New York,New York,10120
5247.10,40.71455828329572,-74.00563311036342,New York,New York,11227
5248.05,40.71390635745055,-73.90300396636265,New York,New York,10009
5250.05,40.712477508159054,-73.94100669346527,New York,New York,10009
5257.01,40.71433716860894,-73.91402973881564,New York,New York,10009
5259.06,40.71336077209637,-73.94908079846466,New York,New York,10008
5262.09,40.713157577930396,-73.98481879589286,New York,New York,11232
5267.08,40.71287140328706,-73.9570413417145,New York,New York,11213
5267.09,40.71468082241084,-73.95737871358469,New York,New York,10120
5270.05,40.71406628006009,-73.99293906101651,New York,New York,10459
5270.07,40.715819160136014,-73.99422391958736,New York,New York,10009
5270.08,40.71418483268336,-73.99667378625183,New York,New York,10009
5270.09,40.71313069055242,-73.9944557526197,New York,New York,10009
5273.01,40.71402306143357,-73.92790980109791,New York,New York,10009
5276.04,40.71,-73.97,New York,New York,10120
5279.03,40.714947103726985,-74.00234666704013,New York,New York,10009
5280.02,40.714480808333334,-73.90103447079738,New York,New York,10009
5282.02,40.71379179871091,-73.93518798390726,New York,New York,10120
5288.08,40.713333805186394,-74.00941320966312,New York,New York,10009
5288.09,40.714699034963715,-74.00907327576692,New York,New York,10009
5288.12,40.714839795435346,-74.01117393759463,New York,New York,10023
5289.05,40.71481495145284,-73.90895698915094,New York,New York,10120
5291.05,40.71510251331712,-73.94451109477653,New York,New York,10120
5294.04,40.71421440680719,-73.98111238582392,New York,New York,10009
5297.02,40.715328041452686,-74.01656144319743,New York,New York,10009
5300.05,40.71413835078105,-73.95234494313613,New York,New York,10120
5300.06,40.71607246570326,-73.951998305617,New York,New York,10023
5303.06,40.715603197119115,-73.98703525694903,New York,New York,10010
5303.08,40.7142809165004,-73.98990479012416,New York,New York,10162
5308.04,40.71533945703846,-73.96021414302143,New York,New York,10009
5321.08,40.716938409837205,-73.902033636,New York,New York,10008
5323.06,40.715345363600086,-73.9386017737469,New York,New York,10010
5326.06,40.71784852211622,-73.97629549007365,New York,New York,10120
5329.03,40.717577686432826,-74.01320361153448,New York,New York,10456
5329.08,40.715029385760765,-74.0124290128622,New York,New York,10456
5332.10,40.71636168385192,-73.94828297585757,New York,New York,10456
5335.03,40.71622861772733,-73.98261235639117,New York,New York,10456
5335.07,40.715097278699176,-73.98409450830475,New York,New York,10456
5340.01,40.72,-73.96,New York,New York,10456
5342.10,40.716030773497906,-73.9919195130528,New York,New York,10019
5343.11,40.71734621866635,-73.9906357906021,New York,New York,10009
5348.02,40.716911456886464,-73.9631834686465,New York,New York,11216
5351.03,40.7160204806257,-73.9997278483635,New York,New York,10009
5351.07,40.71740207356186,-73.99963921651546,New York,New York,10009
5354.01,40.71662505527566,-73.93635140548386,New York,New York,10120
5359.10,40.71628202095162,-74.00914985703969,New York,New York,10019
5359.11,40.717518182566536,-74.00552649769422,New York,New York,10451
5359.12,40.71704810241402,-74.00929634564528,New York,New York,11102
5359.13,40.71687478300146,-74.00648016887797,New York,New York,10009
5360.02,40.71595473670264,-73.9060346164334,New York,New York,10153
5362.08,40.717737491847025,-73.94053426880454,New York,New York,10019
5365.02,40.71738504753723,-73.9801772929115,New York,New York,10111
5368.03,40.71757031572724,-74.0159189765362,New York,New York,11215
5369.01,40.71891458079167,-73.91425608072917,New York,New York,11215
5371.07,40.7176668064602,-73.9488457660894,New York,New York,11102
5374.01,40.717216883919406,-73.98801798479458,New York,New York,10120
5379.09,40.719010860256084,-73.95854649885996,New York,New York,10153
5379.10,40.71745258680502,-73.9585178262407,New York,New York,10120
5382.06,40.718855156788024,-73.99600579531685,New York,New York,11216
5382.07,40.71777325987221,-73.99319103881038,New York,New York,10019
5391.06,40.71937923052402,-74.00248786682327,New York,New York,10111
5392.04,40.7183913013022,-73.90131511193955,New York,New York,11216
5400.05,40.718696825487996,-74.00903027350327,New York,New York,11215
5401.03,40.717874143892054,-73.90848615077894,New York,New York,11221
5403.04,40.71697516522781,-73.94484665965881,New York,New York,10009
5403.05,40.719288163664345,-73.94500811547493,New York,New York,10120
5406.02,40.71851748669243,-73.983247031092,New York,New York,11215
5406.04,40.71927391216917,-73.98178173457602,New York,New York,10009
5409.02,40.71808233213793,-73.91814065537932,New York,New York,11215
5411.07,40.71922872504449,-73.95241657050806,New York,New York,10120
5411.08,40.71819381857286,-73.9551780078953,New York,New York,11215
5414.06,40.72020807155274,-73.98997775979329,New York,New York,10021
5414.07,40.719393896707416,-73.99149828532019,New York,New York,10120
5419.04,40.72,-73.96,New York,New York,10120
5422.04,40.719103722626265,-73.99970278530448,New York,New York,10019
5422.09,40.72030210232217,-73.99879724037818,New York,New York,10120
5430.08,40.7191194306102,-74.00667041266122,New York,New York,10016
5430.10,40.71975149602991,-74.00522576534134,New York,New York,10010
5433.03,40.71908121214871,-73.94223583977976,New York,New York,10158
5433.04,40.71883788896253,-73.93942452625072,New York,New York,11225
5436.09,40.72082199924557,-73.97794825770353,New York,New York,10016
5436.11,40.71976164488559,-73.97868022417852,New York,New York,11217
5440.05,40.719164295384616,-73.91235869729232,New York,New York,10016
5442.05,40.71915408953144,-73.94892942548123,New York,New York,10016
5442.09,40.720834603557655,-73.94842610597921,New York,New York,10167
5445.02,40.72067657641632,-73.98518483130238,New York,New York,11225
5445.07,40.72076618684014,-73.98630972769514,New York,New York,10167
5450.04,40.72080912240641,-73.9548671449185,New York,New York,11238
5453.01,40.72118323176451,-73.99189533348267,New York,New York,10010
5453.05,40.718991906433935,-73.99263394587662,New York,New York,10016
5453.06,40.720545436408194,-73.99486365764312,New York,New York,11217
5458.02,40.71923976608187,-73.96,New York,New York,10024
5470.02,40.719952488855206,-74.00842386811198,New York,New York,10010
5470.10,40.72125508299467,-74.01001973999439,New York,New York,10016
5470.12,40.720202087019004,-74.01029762040227,New York,New York,10010
5471.04,40.720978676892855,-73.9070229055,New York,New York,10016
5473.03,40.72158710894863,-73.94543601970145,New York,New York,10016
5473.06,40.72,-73.94,New York,New York,11249
5476.03,40.72087743823143,-73.98085629198215,New York,New York,10038
5481.04,40.721806029191306,-73.95040442965376,New York,New York,10016
5484.09,40.721998102256,-73.98912695967356,New York,New York,10016
5489.03,40.720404483435594,-73.96161836038495,New York,New York,11217
5489.04,40.722450051143184,-73.95921642752047,New York,New York,10167
5492.05,40.72209482565285,-73.9972537414748,New York,New York,11249
5500.02,40.72174004718453,-74.00241702943883,New York,New York,11249
5500.07,40.72244106711296,-74.00566162323521,New York,New York,10459
5501.06,40.7215116884,-73.90295344304,New York,New York,11216
5503.01,40.722301724997884,-73.93886195404968,New York,New York,11217
5506.10,40.72368625828958,-73.97575454770677,New York,New York,11249
5506.14,40.722306345725,-73.97670111239316,New York,New York,10167
5509.02,40.72231944314755,-74.01058014402535,New York,New York,10016
5510.02,40.722488709177775,-73.90858944760001,New York,New York,10167
5510.05,40.7223526714375,-73.91221207871875,New York,New York,11217
5515.02,40.72216859950193,-73.98369609854346,New York,New York,10158
5515.08,40.723366084724475,-73.98271703533064,New York,New York,11216
5520.09,40.72406963200997,-73.95576166517516,New York,New York,11217
5523.02,40.722286753003885,-73.99144821512111,New York,New York,11217
5532.01,40.723620489221915,-73.99944856962446,New York,New York,10016
5539.06,40.721855701670904,-74.00768209510181,New York,New York,10010
5540.06,40.72371170888405,-73.90463056773913,New York,New York,10009
5542.04,40.7232494252608,-73.9430419364758,New York,New York,10009
5545.01,40.724151267858474,-73.97903613901315,New York,New York,10009
5545.04,40.72301840866408,-73.97998803158447,New York,New York,10019
5550.05,40.72313687422909,-73.9521113116779,New York,New York,10009
5550.09,40.72395212886483,-73.94982307467635,New York,New York,10111
5553.03,40.724695439917376,-73.98783584592849,New York,New York,10009
5553.10,40.72309779498756,-73.98586239170355,New York,New York,10013
5558.04,40.72,-73.96,New York,New York,10451
5561.04,40.723178948148124,-73.99482737095543,New York,New York,10009
5561.06,40.724608228569274,-73.99568578757119,New York,New York,10009
5569.06,40.72497855172593,-74.0016214764828,New York,New York,10009
5569.07,40.72320421667003,-74.0031253741481,New York,New York,10009
5570.04,40.72351584506897,-73.89974739317242,New York,New York,10009
5575.08,40.72580792158,-73.974222585724,New York,New York,10111
5575.13,40.72507908529583,-73.97515832357735,New York,New York,10039
5578.02,40.724096808512485,-74.00960976362346,New York,New York,11102
5579.02,40.7240230858,-73.90844796588,New York,New York,10009
5579.04,40.72613068665854,-73.90922167215854,New York,New York,10009
5581.01,40.725583751697435,-73.94427671682337,New York,New York,10009
5584.04,40.724569763894785,-73.98190849504208,New York,New York,10009
5584.05,40.725151667298974,-73.98134910528871,New York,New York,10009
5593.01,40.723364752536305,-73.9886789261669,New York,New York,11215
5593.02,40.72505170904109,-73.99072727878622,New York,New York,11215
5593.04,40.726298160520045,-73.98977797577935,New York,New York,10009
5602.06,40.72514820510643,-73.99924640388194,New York,New York,11215
5610.09,40.72438105266301,-74.00470510405546,New York,New York,11102
5613.04,40.725748223802064,-73.94171795882704,New York,New York,10009
5616.01,40.725213201337574,-73.9776827203642,New York,New York,10009
5616.08,40.727247034871574,-73.9768885883117,New York,New York,10019
5623.03,40.72480435167669,-73.94757396110722,New York,New York,10009
5626.06,40.72478023869548,-73.98425726257115,New York,New York,10120
5626.07,40.726205040576716,-73.98380081288433,New York,New York,10021
5626.13,40.727806191346076,-73.98567052075735,New York,New York,10009
5626.15,40.72628839511992,-73.98619055678283,New York,New York,10019
5633.04,40.72607987993804,-73.95621746589839,New York,New York,10120
5636.11,40.72744679954861,-73.9938049091756,New York,New York,11101
5636.13,40.724864776359716,-73.99207818734182,New York,New York,10013
5644.05,40.72633254382805,-74.00046698175657,New York,New York,10009
5653.12,40.72586170955043,-74.0077166599263,New York,New York,10013
5656.03,40.73,-73.94,New York,New York,10009
5659.05,40.72739158129878,-73.98137168736537,New York,New York,10009
5659.11,40.72748871831705,-73.9795447907867,New York,New York,10019
5666.04,40.72706865997176,-73.95297745129503,New York,New York,10019
5669.10,40.72842560961897,-73.98716599482626,New York,New York,10019
5669.12,40.727344614070994,-73.98836770384803,New York,New York,10013
5679.05,40.72707966713401,-73.9966107515849,New York,New York,11222
5679.08,40.726165382542874,-73.99513584252172,New York,New York,10019
5687.04,40.72712411579698,-74.00293733963134,New York,New York,10019
5687.11,40.72786866554443,-74.00532040904086,New York,New York,10019
5688.02,40.72900692670769,-73.90118060530769,New York,New York,10009
5696.03,40.72777011039415,-74.01127752677547,New York,New York,11215
5703.13,40.72861049241358,-73.98171500074204,New York,New York,11215
5709.03,40.72754418121595,-73.95509540688668,New York,New York,10019
5712.03,40.72950386820233,-73.99079028603809,New York,New York,10009
5712.12,40.727683190681866,-73.99097290656769,New York,New York,10019
5721.01,40.73044881255485,-73.99907740870879,New York,New York,10111
5721.07,40.72837656726767,-73.99974014402879,New York,New York,11216
5721.14,40.72918158351798,-73.99809521349734,New York,New York,10013
5730.08,40.72879785879118,-74.00858720658753,New York,New York,10009
5731.03,40.730285614321424,-73.90420514017858,New York,New York,10009
5736.09,40.729392032733166,-73.97773533202529,New York,New York,11215
5743.02,40.72982092266009,-73.94843013734294,New York,New York,10019
5746.02,40.72969706635597,-73.98658026016419,New York,New York,10120
5746.14,40.72955782666761,-73.98430388152406,New York,New York,10111
5752.07,40.729054793380946,-73.95777502768888,New York,New York,10120
5752.09,40.73,-73.96,New York,New York,10009
5755.01,40.72908990310651,-73.99402371228126,New York,New York,10120
5755.09,40.73046266479392,-73.99576291298452,New York,New York,11213
5755.14,40.731402454273855,-73.99492513050137,New York,New York,10120
5763.03,40.730391438958904,-74.0021542792523,New York,New York,10120
5769.06,40.729857432719875,-73.97454592787668,New York,New York,10010
5772.05,40.73112806805123,-74.00872224949332,New York,New York,10120
5779.08,40.73222113349243,-73.9816530936777,New York,New York,10120
5779.09,40.72965414570182,-73.9806427238055,New York,New York,10019
5779.10,40.73141032299648,-73.98287091717586,New York,New York,10120
5779.11,40.73027712733174,-73.9804947024527,New York,New York,10009
5785.05,40.73026007643325,-73.95396335555768,New York,New York,10009
5785.10,40.73124699596853,-73.95159194221678,New York,New York,10120
5788.12,40.73224039377062,-73.98888361990967,New York,New York,10009
5788.13,40.730240553029795,-73.99098596913917,New York,New York,10009
5788.15,40.732625178646565,-73.99009169480402,New York,New York,10013
5788.16,40.73125107626569,-73.98844732666407,New York,New York,10019
5794.05,40.73175325322168,-73.96114188430818,New York,New York,10009
5797.01,40.732300198673016,-73.99849895277414,New York,New York,10009
5805.05,40.73172971655288,-74.00676596836203,New York,New York,10013
5805.07,40.73208930672785,-74.00366125559398,New York,New York,10009
5820.08,40.7315347051152,-73.98525570094671,New York,New York,11215
5826.02,40.73232608207569,-73.95503143510517,New York,New York,10120
5838.09,40.732223435790004,-74.0002579871587,New York,New York,10120
5847.01,40.732928045247554,-74.00708111992871,New York,New York,10019
5847.06,40.73343032964641,-74.00845292997144,New York,New York,10009
5847.08,40.73194983125437,-74.00875722128818,New York,New York,10009
5854.09,40.73386495123614,-73.98051792073815,New York,New York,10451
5854.10,40.7323342326708,-73.97899634573425,New York,New York,10009
5860.02,40.73398017859216,-73.95201622930587,New York,New York,10120
5863.07,40.73421435590763,-73.98694297711472,New York,New York,10009
5869.04,40.73266109397703,-73.95826576570907,New York,New York,10111
5872.10,40.73275416485034,-73.99577136507811,New York,New York,10013
5880.02,40.73400378290096,-74.00290580144896,New York,New York,10009
5881.01,40.733952775875004,-73.90130127319642,New York,New York,10019
5883.06,40.734467115101886,-73.93786629257399,New York,New York,10120
5886.13,40.73321508797038,-73.97567410582718,New York,New York,11206
5896.01,40.734328425707524,-73.9837579829217,New York,New York,10023
5902.07,40.74,-73.95,New York,New York,11227
5905.12,40.73453321801736,-73.99076499666639,New York,New York,10010
5905.14,40.73478906616554,-73.99209716082177,New York,New York,10009
5914.03,40.73528983131341,-73.99793638323726,New York,New York,10010
5914.08,40.73519072844097,-74.00025743970058,New York,New York,10004
5917.02,40.735705067187354,-73.93482573343165,New York,New York,10120
5922.04,40.73491429357451,-74.00697031385789,New York,New York,10010
5922.07,40.73536167939189,-74.00476175434581,New York,New York,10120
5922.08,40.73652803761367,-74.00616737890672,New York,New York,10120
5923.02,40.735684693574854,-73.90390156492215,New York,New York,10120
5929.01,40.73651500989474,-73.97812398337123,New York,New York,10120
5938.01,40.736255838520336,-73.98470714113397,New York,New York,10120
5938.11,40.73537864240175,-73.98803104561449,New York,New York,10010
5944.01,40.7356655931637,-73.95866346323893,New York,New York,10004
5947.04,40.73542986516053,-73.99435898474161,New York,New York,10009
5955.12,40.735915031532166,-74.00097107668215,New York,New York,10009
5956.04,40.7357859970339,-73.90184124345762,New York,New York,10008
5956.05,40.73707468046296,-73.90073463572222,New York,New York,10120
5964.01,40.736181493497654,-74.00862314698642,New York,New York,11206
5971.08,40.73587358286824,-73.98202743653033,New York,New York,10010
5971.09,40.73716000281327,-73.98121213231475,New York,New York,11206
5977.01,40.73557049129635,-73.95284113357073,New York,New York,10010
5980.07,40.73703301724191,-73.99004744109915,New York,New York,10120
5983.04,40.73792340178002,-73.92264551284696,New York,New York,10120
5989.02,40.73808872420424,-73.99647644442487,New York,New York,10008
5992.02,40.737855160879704,-73.93023117067538,New York,New York,10120
5997.10,40.737514131134596,-74.00549858315276,New York,New York,10120
5998.09,40.738818736545454,-73.90338241643636,New York,New York,10120
6001.01,40.73865198400838,-73.9409972520527,New York,New York,10459
6004.06,40.73946302623984,-73.97683658757006,New York,New York,10120
6004.07,40.7381608448827,-73.97734915691397,New York,New York,10008
6013.12,40.73796639246376,-73.9851440135875,New York,New York,10008
6016.06,40.737409493124,-73.918021202712,New York,New York,10120
6019.04,40.74,-73.95128,New York,New York,10011
6022.04,40.73723050154582,-73.99239526836041,New York,New York,10010
6025.08,40.738213905269035,-73.92737946036513,New York,New York,10011
6030.04,40.73779288514058,-73.9998904490512,New York,New York,10011
6030.06,40.739360013032346,-73.9993596403916,New York,New York,10010
6033.01,40.740247478328335,-73.93537274620131,New York,New York,10069
6039.06,40.73925710760901,-74.0080870002785,New York,New York,10011
6046.02,40.73910068700741,-73.97969823918437,New York,New York,10010
6055.08,40.738254844159094,-73.9875111327664,New York,New York,10278
6058.08,40.739390793500064,-73.92131693320653,New York,New York,10011
6064.08,40.739698290171084,-73.99456903823233,New York,New York,10069
6067.01,40.74035151209489,-73.92887812726077,New York,New York,10460
6072.06,40.739018748355974,-74.00263632271447,New York,New York,10009
6072.11,40.740951094960145,-74.00170752641922,New York,New York,10010
6072.14,40.73945739118975,-74.00502650502567,New York,New York,11101
6076.02,40.74130572684211,-73.93801454297369,New York,New York,10010
6079.03,40.74145550849548,-73.97535659814208,New York,New York,10010
6089.07,40.74030354180179,-73.98411207682008,New York,New York,10025
6089.08,40.74152136407676,-73.9832818630103,New York,New York,10011
6089.11,40.7406800676921,-73.98157174264102,New York,New York,10069
6092.01,40.740875272255316,-73.9170523603351,New York,New York,10120
6098.02,40.73973911348782,-73.99108687868276,New York,New York,10004
6098.10,40.7399616954983,-73.98955311895574,New York,New York,10120
6098.12,40.738672502556575,-73.98989751542584,New York,New York,10004
6101.11,40.739880212951384,-73.92389061170292,New York,New York,10008
6107.08,40.74059848069406,-73.99855760220902,New York,New York,10019
6108.03,40.741820377141025,-73.89564031760897,New York,New York,10111
6110.01,40.7408221044521,-73.93147986395009,New York,New York,10120
6115.06,40.740108651456254,-74.00527322738338,New York,New York,10167
6115.09,40.742711896433015,-74.00741923013317,New York,New York,10032
6116.03,40.74092526103723,-73.90272841888299,New York,New York,10010
6122.09,40.74174709955744,-73.9780720512154,New York,New York,10016
6128.04,40.74252754411884,-73.94887717028013,New York,New York,10167
6131.12,40.74264960045072,-73.98676193371627,New York,New York,10167
6131.13,40.742787752893314,-73.9847487009063,New York,New York,10016
6134.03,40.74240003608334,-73.91811896034524,New York,New York,11221
6134.13,40.74109158736614,-73.92103473869054,New York,New York,10025
6137.04,40.742352167791424,-73.95664194748149,New York,New York,10111
6140.05,40.74174495926987,-73.994137417158,New York,New York,10009
6141.02,40.742897703319066,-73.89284043651362,New York,New York,10111
6143.01,40.74221156978606,-73.92935184193936,New York,New York,10120
6143.05,40.74218736291748,-73.9266174428618,New York,New York,10021
6148.02,40.74180284071928,-74.0014820113296,New York,New York,10111
6149.02,40.7433250315534,-73.89903973983495,New York,New York,10009
6151.03,40.74302330186183,-73.9355956173506,New York,New York,10111
6157.04,40.74195458219081,-74.00831080507521,New York,New York,10111
6158.02,40.741924605963305,-73.9090266977523,New York,New York,10111
6158.06,40.74319523072973,-73.9080321844973,New York,New York,10111
6164.09,40.74310177258712,-73.9821658625094,New York,New York,10111
6167.03,40.74291436125882,-73.91397496198823,New York,New York,10111
6170.02,40.742352608094784,-73.95411282749043,New York,New York,10009
6173.08,40.74283880584581,-73.98917835430643,New York,New York,10111
6176.11,40.74351314026084,-73.92433368993737,New York,New York,10111
6179.07,40.74335574517019,-73.95959479230207,New York,New York,10111
6182.02,40.74239772566965,-73.99724526023255,New York,New York,10111
6183.03,40.74281636305825,-73.89589232705826,New York,New York,10111
6185.04,40.74283246634259,-73.93209549914815,New York,New York,10111
6185.07,40.744347589027065,-73.93171892539422,New York,New York,10111
6190.03,40.74355656229239,-74.00371544062709,New York,New York,10111
6190.08,40.743169101478074,-74.00364581455607,New York,New York,10111
6191.04,40.742628258,-73.90297613649516,New York,New York,10111
6191.06,40.745104462072725,-73.90358661991364,New York,New York,10111
6197.02,40.74294067552527,-73.9770425469234,New York,New York,10034
6197.08,40.74326307571495,-73.97456454540261,New York,New York,10111
6200.03,40.74463955473718,-73.91147099786859,New York,New York,10111
6203.02,40.7452534644256,-73.94732915114142,New York,New York,10111
6206.08,40.744445827345835,-73.98299936105903,New York,New York,10111
6209.05,40.74481545809564,-73.91723008401127,New York,New York,10120
6209.08,40.74354152031459,-73.91864280190309,New York,New York,10009
6212.04,40.744360985798444,-73.95582653359094,New York,New York,10111
6212.08,40.74492364111011,-73.95344118142637,New York,New York,10019
6215.04,40.743944967872196,-73.99141047835779,New York,New York,10111
6218.04,40.74433370302386,-73.92601172172554,New York,New York,10009
6224.03,40.744758782168354,-73.99917703721925,New York,New York,11101
6224.05,40.74348903029759,-74.00008413134212,New York,New York,10008
6224.06,40.74588690583308,-73.99809674419159,New York,New York,10009
6225.03,40.74447815621739,-73.89763393432608,New York,New York,10105
6227.02,40.744595218959134,-73.93546846458413,New York,New York,10010
6230.04,40.74417667948524,-73.97123663557188,New York,New York,10010
6233.05,40.74335016742462,-74.0068502247848,New York,New York,10120
6234.01,40.75,-73.91,New York,New York,10120
6234.03,40.74550785438421,-73.90606763609473,New York,New York,10009
6234.04,40.74521663106867,-73.90464850567811,New York,New York,10120
6237.01,40.74373052462261,-73.94178022688189,New York,New York,10009
6239.08,40.74395611157798,-73.97971155774059,New York,New York,10008
6242.10,40.744541306500004,-73.91407859251142,New York,New York,10120
6247.06,40.74669418775756,-73.9939985589612,New York,New York,10010
6248.06,40.74513231643167,-73.98688882631417,New York,New York,10009
6251.06,40.74535345076357,-73.92193865960714,New York,New York,10009
6254.06,40.745066520686656,-73.95752886227586,New York,New York,10120
6257.03,40.74488077181463,-73.99534415475533,New York,New York,10009
6258.03,40.74478082859444,-73.89376477070833,New York,New York,10120
6260.04,40.74404546914081,-73.92900672414797,New York,New York,10120
6266.06,40.745501536472254,-74.00197506663214,New York,New York,10120
6267.08,40.745863417861386,-73.89915057340595,New York,New York,10009
6276.02,40.74678089329703,-73.9089166659406,New York,New York,10004
6276.05,40.74549845328854,-73.90984895910671,New York,New York,10004
6280.12,40.7456531254204,-73.98195251755602,New York,New York,10120
6283.05,40.74620921940797,-73.91615550188492,New York,New York,10120
6286.02,40.74729132263198,-73.9544928496725,New York,New York,10120
6289.06,40.746228862418384,-73.9885668613666,New York,New York,10120
6292.03,40.74562691657592,-73.92406120398691,New York,New York,10023
6297.02,40.74736249478445,-73.9972707331009,New York,New York,10008
6297.07,40.74798155330937,-73.99661018357143,New York,New York,10008
6298.04,40.7468889406441,-73.89652736329728,New York,New York,10008
6300.04,40.7465357155633,-73.93220167666519,New York,New York,10008
6303.01,40.74717652420268,-73.97111329673758,New York,New York,10029
6306.01,40.745675878542535,-74.00512035597049,New York,New York,10038
6306.06,40.74689618432541,-74.0044321349661,New York,New York,10167
6307.07,40.747055371377236,-73.90281714747098,New York,New York,10038
6310.06,40.748502105069605,-73.94124235738062,New York,New York,10016
6313.10,40.74756861913557,-73.97883758421395,New York,New York,10038
6316.05,40.74732600789121,-73.91194234533891,New York,New York,10167
6319.01,40.747094258200974,-73.94978219040843,New York,New York,10167
6319.07,40.74736754065227,-73.94784874600467,New York,New York,10167
6322.01,40.74764717557883,-73.98487258134197,New York,New York,10038
6325.01,40.74698171723204,-73.92082550651322,New York,New York,10034
6331.01,40.74908822304657,-73.99166556561818,New York,New York,10167
6334.03,40.74715777601617,-73.92903011829333,New York,New York,10038
6339.06,40.747870461598175,-74.00060571448503,New York,New York,10167
6340.09,40.74896581842857,-73.89989133117857,New York,New York,10167
6345.08,40.74804890130547,-73.97394355980029,New York,New York,10167
6349.03,40.74837777625555,-73.90697007069444,New York,New York,10167
6352.01,40.747166482725945,-73.94320935660176,New York,New York,10167
6361.03,40.74967808563242,-73.95209649672832,New York,New York,10010
6364.07,40.74895959186902,-73.98849885154604,New York,New York,10016
6364.10,40.74960465088418,-73.9880598924088,New York,New York,10016
6373.07,40.74961108440321,-73.99514010770419,New York,New York,10167
6379.03,40.74995379846878,-73.96910128506691,New York,New York,10115
6382.05,40.74973323292089,-74.00297400428326,New York,New York,10115
6383.02,40.74955927653488,-73.90257124426743,New York,New York,10167
6389.09,40.749465772739676,-73.9772543528485,New York,New York,10010
6392.02,40.74891445808334,-73.909005573,New York,New York,10167
6395.01,40.7505316935049,-73.94592579218396,New York,New York,10016
6398.06,40.75045619819607,-73.98339848150407,New York,New York,10016
6398.08,40.74849727686724,-73.98263268354694,New York,New York,10167
6401.01,40.75017471269911,-73.92000655364602,New York,New York,10115
6401.03,40.74947833062212,-73.91825149014565,New York,New York,10016
6416.06,40.75007827502737,-73.99837913525988,New York,New York,10167
6417.04,40.750548205755976,-73.89770289326795,New York,New York,10010
6417.11,40.74940613753481,-73.89740002964984,New York,New York,10167
6422.08,40.75022285749201,-73.9711753543099,New York,New York,11233
6422.09,40.75122575120082,-73.97154730945769,New York,New York,10158
6425.04,40.751362389173664,-74.00529461112934,New York,New York,10016
6426.05,40.75051133110417,-73.90511735977084,New York,New York,10024
6429.01,40.75110879813954,-73.94073163742254,New York,New York,10167
6432.10,40.75206559915586,-73.97959278777182,New York,New York,10167
6432.11,40.750754901557045,-73.97832214995051,New York,New York,10167
6435.02,40.75159020627004,-73.91501830958013,New York,New York,11217
6435.03,40.75005539353701,-73.91351396827841,New York,New York,10120
6438.04,40.75192555550555,-73.94788942913888,New York,New York,10004
6441.01,40.750953886478015,-73.98767695757057,New York,New York,11101
6441.02,40.751702964055596,-73.98758942685292,New York,New York,10009
6441.06,40.75225872928664,-73.98780508066764,New York,New York,10010
6450.05,40.75056617581934,-73.99470769659052,New York,New York,10010
6450.12,40.75164752787629,-73.99383241773087,New York,New York,10120
6453.02,40.7524338805943,-73.92975399241227,New York,New York,10004
6459.04,40.7506350769662,-74.00180166736922,New York,New York,10004
6459.07,40.75271323125655,-74.00242948161366,New York,New York,10010
6460.06,40.751999576181106,-73.89986307613387,New York,New York,10013
6462.05,40.75359455776069,-73.93800297772705,New York,New York,10009
6462.19,40.75096153294385,-73.93797652956647,New York,New York,10009
6464.08,40.752606736828206,-73.97279593252863,New York,New York,10009
6464.09,40.75266272942894,-73.97498038376241,New York,New York,10039
6468.01,40.750960592750005,-73.90799860788236,New York,New York,10009
6471.02,40.75327391815415,-73.94334736998245,New York,New York,10153
6474.02,40.752294733242074,-73.98213714697485,New York,New York,10111
6474.11,40.75196361140036,-73.98155038835446,New York,New York,10111
6483.06,40.7521553438574,-73.98953746400687,New York,New York,10111
6486.07,40.75238462648699,-73.92537807695538,New York,New York,10013
6492.04,40.75372942045199,-73.99932296302055,New York,New York,10111
6495.17,40.751867730107385,-73.93346537243713,New York,New York,10111
6498.09,40.7520695526707,-73.96787557598842,New York,New York,10111
6498.10,40.75326034992239,-73.97039639314016,New York,New York,10111
6502.01,40.7532399225147,-73.90586285654412,New York,New York,10111
6505.09,40.752468765339806,-73.93999359656311,New York,New York,10111
6511.03,40.753459496052294,-73.91239032977778,New York,New York,10111
6514.03,40.754059348316375,-73.94943614999968,New York,New York,10111
6517.08,40.75495655778538,-73.98459786592213,New York,New York,10013
6520.06,40.754148910267716,-73.91954528572835,New York,New York,11221
6520.07,40.75307652913274,-73.92060813070502,New York,New York,10019
6526.01,40.75274430791623,-73.992794651935,New York,New York,10120
6526.05,40.754563249232966,-73.99175639533934,New York,New York,10111
6529.02,40.75311122491935,-73.9279391629113,New York,New York,10111
6532.06,40.75458164930352,-73.96593526900182,New York,New York,10111
6535.04,40.75521521665975,-74.00070151112547,New York,New York,10111
6536.02,40.75420081563414,-73.90032306081707,New York,New York,10153
6538.11,40.75473057314209,-73.93370564222484,New York,New York,10456
6541.03,40.754667066223035,-73.97193288900296,New York,New York,10009
6545.07,40.754158862100006,-73.90886989185651,New York,New York,11215
6551.02,40.755011351203784,-73.98020619484322,New York,New York,10013
6551.11,40.753584334336004,-73.9790133283447,New York,New York,10153
6554.05,40.75389338573179,-73.91497993456291,New York,New York,10111
6560.01,40.75514369340544,-73.98662042212344,New York,New York,10111
6560.14,40.75486698571008,-73.98816615601767,New York,New York,10120
6560.15,40.75302232191244,-73.98730103020698,New York,New York,10120
6563.12,40.755752954006844,-73.92360995523832,New York,New York,10111
6566.01,40.753696588367426,-73.95867161776277,New York,New York,10009
6569.07,40.754607051199095,-73.99515599529614,New York,New York,10019
6569.08,40.75471324525396,-73.99745822174434,New York,New York,10009
6569.09,40.75418717817807,-73.99614151501056,New York,New York,10120
6572.08,40.75650329595995,-73.92951523786004,New York,New York,10111
6575.03,40.75530029459095,-73.96761647395569,New York,New York,11102
6578.01,40.75597769566744,-74.0021546249845,New York,New York,10153
6579.03,40.755706892196976,-73.9034237906212,New York,New York,10111
6581.14,40.756357875581735,-73.93650210550722,New York,New York,10009
6584.12,40.75506402990333,-73.97494503254862,New York,New York,10009
6587.04,40.75537690152514,-73.91148603241899,New York,New York,10120
6593.15,40.75698663391473,-73.98257314703618,New York,New York,10010
6596.10,40.7548215790989,-73.91704059660879,New York,New York,10016
6599.01,40.757277705284366,-73.9535926843067,New York,New York,10016
6602.03,40.756433122886136,-73.98994706566958,New York,New York,10016
6602.05,40.75764794763644,-73.99091816328928,New York,New York,10010
6605.08,40.75691505261463,-73.92621060950633,New York,New York,10016
6608.09,40.75625959841144,-73.96416427635016,New York,New York,10167
6611.02,40.756602807076355,-73.99797715011836,New York,New York,10167
6611.07,40.756814628043244,-73.99967096778397,New York,New York,10038
6614.01,40.75715631133823,-73.93274159612942,New York,New York,10167
6617.02,40.757593323017744,-73.96926393804084,New York,New York,10167
6617.09,40.75827293907111,-73.97070119813141,New York,New York,10016
6621.06,40.75735346448039,-73.90470127044607,New York,New York,10167
6626.01,40.75725738868736,-73.97795517548742,New York,New York,10010
6626.11,40.75776727311198,-73.97930171655814,New York,New York,10167
6629.06,40.75573935956633,-73.91273631219393,New York,New York,10167
6638.01,40.75691375836456,-73.92158012593507,New York,New York,10167
6644.07,40.75894085973484,-73.9937959362724,New York,New York,10172
6644.08,40.75638990461314,-73.99411868836746,New York,New York,10167
6650.07,40.75794544982831,-73.96603704778316,New York,New York,10167
6654.05,40.757534853154475,-73.90157615386993,New York,New York,10167
6656.05,40.757639409045716,-73.9391168276,New York,New York,10016
6659.01,40.75721378722304,-73.97210159995961,New York,New York,10158
6659.03,40.75968540990838,-73.97402995069642,New York,New York,10016
6659.09,40.758631257204875,-73.97499364447054,New York,New York,10158
6659.10,40.75731984719527,-73.97430276852296,New York,New York,10038
6662.01,40.758083338658366,-73.9098147118914,New York,New York,10167
6662.09,40.75772556359997,-73.90766971487149,New York,New York,10158
6664.05,40.757438394414194,-73.945173629,New York,New York,10016
6667.04,40.75838110831899,-73.98267035400158,New York,New York,10167
6670.03,40.757712823031696,-73.91665302140728,New York,New York,10010
6676.02,40.75930770829672,-73.98867244802592,New York,New York,10167
6679.11,40.758030089141194,-73.92426822927854,New York,New York,10016
6682.03,40.75891510131134,-73.96225424421179,New York,New York,10010
6682.08,40.75908252962037,-73.95920868582613,New York,New York,10010
6688.01,40.75961841152128,-73.93216439654078,New York,New York,10010
6691.11,40.75931658154807,-73.9675390286422,New York,New York,10010
6700.14,40.7597765614747,-73.97818231229883,New York,New York,10002
6703.06,40.760702014205386,-73.9110087404276,New York,New York,10002
6708.04,40.760203490031714,-73.98483086874303,New York,New York,10002
6711.13,40.75909203268336,-73.91895837012366,New York,New York,10030
6717.06,40.760191780982645,-73.99125608159687,New York,New York,10010
6720.07,40.75950835765276,-73.92723252237506,New York,New York,10069
6723.10,40.75913595823557,-73.96271238626893,New York,New York,10010
6726.01,40.76034595761613,-73.99881276101245,New York,New York,10030
6729.02,40.76016759153846,-73.93629735372436,New York,New York,10009
6732.01,40.76152243322787,-73.97265540959826,New York,New York,10011
6735.03,40.76007698854167,-73.90711931233334,New York,New York,10010
6737.03,40.761434569626836,-73.9410929229371,New York,New York,11104
6740.01,40.76119045992676,-73.97993303446765,New York,New York,10010
6740.10,40.760684418415735,-73.98045029494227,New York,New York,10011
6743.06,40.75958968301,-73.9143039133625,New York,New York,10010
6747.06,40.762293544879086,-73.98794529114036,New York,New York,10011
6747.07,40.76178952952506,-73.98649776797832,New York,New York,10011
6750.16,40.76031229515404,-73.92228154502934,New York,New York,10010
6753.08,40.7612550133806,-73.96090180990277,New York,New York,10011
6756.01,40.76008696622372,-73.99456685597909,New York,New York,10011
6756.05,40.761932774240634,-73.9969020372448,New York,New York,10030
6759.15,40.76106863307241,-73.93057617843449,New York,New York,10010
6762.02,40.761004669481146,-73.9672735750554,New York,New York,10002
6762.04,40.76312384250194,-73.96537261270554,New York,New York,10010
6765.01,40.7608853589403,-74.00279587685533,New York,New York,10009
6766.03,40.76252114651833,-73.90257344504401,New York,New York,10009
6771.13,40.76,-73.98,New York,New York,10011
6774.13,40.761281457118116,-73.90959519950651,New York,New York,10011
6779.04,40.76229716444368,-73.98340319650458,New York,New York,10010
6779.05,40.763489286092344,-73.98265690646896,New York,New York,10010
6782.01,40.76117193825732,-73.91696589738076,New York,New York,10011
6786.02,40.76151609805045,-73.99002909250822,New York,New York,10011
6789.04,40.76154929304452,-73.92590543304624,New York,New York,10011
6795.01,40.76342490900635,-73.99667559803449,New York,New York,10009
6798.01,40.76281468511376,-73.93428427573016,New York,New York,10011
6801.01,40.763499814047016,-73.97113430101147,New York,New York,10010
6804.01,40.764485570039476,-73.9046498921579,New York,New York,10011
6806.06,40.76315631808816,-73.93989196774346,New York,New York,10011
6809.07,40.76342407752106,-73.97731652745652,New York,New York,10011
6809.09,40.763177020727106,-73.97856415259649,New York,New York,10010
6812.06,40.76341243457464,-73.91410488685901,New York,New York,10010
6814.01,40.76394827687625,-73.94774839108918,New York,New York,10011
6816.07,40.76371773231104,-73.98512912837023,New York,New York,10011
6819.15,40.76312791431451,-73.92082182816004,New York,New York,10451
6822.09,40.7649989590655,-73.95817124762254,New York,New York,10278
6824.07,40.762715286399704,-73.99296633097823,New York,New York,10011
6827.11,40.7633462237205,-73.92864478289573,New York,New York,10030
6830.02,40.763961819802766,-73.96457073268097,New York,New York,10011
6836.07,40.76389649088461,-73.93650655264686,New York,New York,10069
6839.04,40.76310202222592,-73.97214640585749,New York,New York,10011
6839.10,40.76438113219437,-73.9737544635522,New York,New York,10011
6842.02,40.76334244880298,-73.90877678958806,New York,New York,10030
6847.02,40.765213253877604,-73.9820283507204,New York,New York,10010
6847.05,40.764079371686876,-73.98101950496392,New York,New York,10010
6850.01,40.764152412939666,-73.91585305327811,New York,New York,10010
6854.05,40.763623606369784,-73.98919484195474,New York,New York,10002
6857.09,40.76468475173276,-73.92398505156035,New York,New York,10010
6860.12,40.764724894754075,-73.96226938083474,New York,New York,10009
6865.03,40.76589269297216,-73.9308534324677,New York,New York,10011
6873.01,40.765347403386684,-73.93986231531,New York,New York,10011
6876.04,40.76591561895436,-73.97636489235532,New York,New York,10010
6879.04,40.764131392586414,-73.91071135430138,New York,New York,10010
6884.03,40.76592908940246,-73.98309822603558,New York,New York,10039
6887.03,40.76549504182878,-73.91809159074822,New York,New York,10010
6889.12,40.76666647470391,-73.95348423621499,New York,New York,10002
6890.01,40.76666958402016,-73.99066725839107,New York,New York,10030
6890.06,40.76475952971775,-73.99200696708282,New York,New York,10011
6893.10,40.76580237372027,-73.92662108052268,New York,New York,11206
6896.16,40.76707052170428,-73.96221383862796,New York,New York,10002
6901.01,40.76675604050741,-73.93470818203704,New York,New York,10002
6904.06,40.7664155814564,-73.97150077424449,New York,New York,10009
6907.03,40.7657791676,-73.90675684778749,New York,New York,10010
6912.01,40.76669741262128,-73.97914334647265,New York,New York,10010
6915.02,40.765656630083186,-73.91365353951073,New York,New York,10069
6920.03,40.765846726938385,-73.98688469169882,New York,New York,10010
6923.20,40.7675205547849,-73.92097368077889,New York,New York,11104
6925.09,40.768695841332644,-73.95845356243385,New York,New York,11104
6926.01,40.76727230451889,-73.99397021038976,New York,New York,10010
6927.03,40.768446401664384,-73.89356802345205,New York,New York,10010
6929.01,40.766629052751135,-73.9286641792526,New York,New York,10011
6929.02,40.766832645625,-73.93050643429167,New York,New York,10011
6932.14,40.767792883743475,-73.96587808892127,New York,New York,10069
6932.15,40.76910492705923,-73.96699696963516,New York,New York,10011
6935.01,40.76919999130136,-73.90096904957534,New York,New York,10011
6937.07,40.76718290123169,-73.93738105304783,New York,New York,10009
6943.07,40.76769808338968,-73.91102211324149,New York,New York,10009
6948.10,40.76689798032711,-73.98174698112035,New York,New York,10009
6951.03,40.767116325940044,-73.91702936005568,New York,New York,10010
6953.08,40.768982159412204,-73.95473075157737,New York,New York,10010
6955.01,40.768290883186154,-73.98871210926458,New York,New York,10011
6955.05,40.768311411222165,-73.9925508887737,New York,New York,10010
6958.06,40.76871739851253,-73.92494976778663,New York,New York,10011
6960.10,40.76877446787874,-73.96126151499786,New York,New York,10011
6964.05,40.768169917703126,-73.89633084439062,New York,New York,10010
6966.04,40.76822910102369,-73.93227341528427,New York,New York,10011
6969.08,40.768077685071276,-73.9684618886015,New York,New York,10010
6981.16,40.77016293012887,-73.91207642975257,New York,New York,10010
6989.07,40.76990166395174,-73.91844467954644,New York,New York,10002
6991.12,40.77114160374105,-73.95771831872258,New York,New York,10011
6994.06,40.76873882661722,-73.89080205733013,New York,New York,10002
6996.01,40.77038871016116,-73.9286365283471,New York,New York,10011
6998.08,40.771222434898704,-73.96414462707871,New York,New York,10005
7003.06,40.76924482416789,-73.93546596786597,New York,New York,10010
7009.02,40.77139735777419,-73.90774341005313,New York,New York,10010
7009.06,40.76969231391827,-73.90600251479808,New York,New York,10010
7014.12,40.77009231689531,-73.98199643425461,New York,New York,10002
7018.01,40.77116860795316,-73.91699304328468,New York,New York,10025
7020.02,40.77095591285956,-73.95349821062946,New York,New York,10069
7020.09,40.77138935768214,-73.95350324993693,New York,New York,10011
7023.04,40.770545205727366,-73.98800052104335,New York,New York,10010
7026.08,40.77135333111982,-73.9246046259194,New York,New York,10030
7028.04,40.769973751489836,-73.96055355494039,New York,New York,10069
7032.02,40.7702570299177,-73.8936741705391,New York,New York,10069
7032.06,40.772121717102564,-73.89511808335898,New York,New York,10010
7034.09,40.7717427364325,-73.93161654758714,New York,New York,10010
7039.03,40.771109442639776,-73.90453220386648,New York,New York,10010
7047.07,40.772992574547594,-73.91123426804029,New York,New York,10009
7049.04,40.772472676866485,-73.94684704347694,New York,New York,10009
7052.01,40.77164689973786,-73.98262038358585,New York,New York,10009
7057.07,40.77279179212227,-73.95580943199039,New York,New York,10009
7059.01,40.77146810884191,-73.99051593198351,New York,New York,10009
7059.08,40.772417336669,-73.99000766218653,New York,New York,10002
7060.02,40.770894986200005,-73.88988537030714,New York,New York,10120
7062.07,40.77272941652717,-73.92742660442725,New York,New York,11215
7066.01,40.77295308992533,-73.89689262157142,New York,New York,10019
7068.07,40.77258068882167,-73.9326705452788,New York,New York,10111
7074.01,40.77269081361895,-73.90617055817943,New York,New York,10456
7079.06,40.77337683080667,-73.97783933589493,New York,New York,10111
7082.14,40.7733620889998,-73.91378187530402,New York,New York,10111
7084.12,40.77285322770075,-73.94985667062724,New York,New York,10111
7092.06,40.773150848309065,-73.95865556074783,New York,New York,10111
7098.05,40.773968962993735,-73.93086369588714,New York,New York,11221
7100.07,40.77280862952375,-73.96687267117348,New York,New York,10019
7111.10,40.774300825064465,-73.90836016581258,New York,New York,10021
7113.05,40.774353645079685,-73.94551499388622,New York,New York,10039
7113.08,40.77516490232827,-73.9444809248757,New York,New York,10009
7116.04,40.77489782835587,-73.98266152485574,New York,New York,10009
7119.04,40.772881452674504,-73.91611723269982,New York,New York,10120
7121.13,40.77377435477244,-73.95204008907486,New York,New York,10039
7123.04,40.775035151059505,-73.98908843429935,New York,New York,10013
7126.01,40.77466447212458,-73.92368548994612,New York,New York,10025
7128.08,40.77380906020795,-73.96224756819838,New York,New York,10025
7132.08,40.77485857034356,-73.93416819304602,New York,New York,10111
7137.04,40.77483298555298,-73.90374892605027,New York,New York,10120
7141.07,40.77581094327697,-73.97615783360096,New York,New York,10013
7144.01,40.77480733535209,-73.91247267290515,New York,New York,10013
7144.02,40.776189264677534,-73.91046921083098,New York,New York,10120
7149.05,40.77460924321914,-73.9846931822187,New York,New York,10120
7152.10,40.774619256537726,-73.918581349687,New York,New York,10009
7154.07,40.77576271177159,-73.9567138448471,New York,New York,10153
7159.08,40.77668259935255,-73.9275884397552,New York,New York,10120
7161.08,40.77639840000661,-73.96424168548995,New York,New York,10033
7163.07,40.77540154719101,-73.90003671907866,New York,New York,10009
7170.04,40.77676601099253,-73.90653816251243,New York,New York,10033
7175.05,40.777056932606655,-73.97899132970586,New York,New York,10111
7178.02,40.77617379828733,-73.91532037588236,New York,New York,10111
7180.02,40.77566693393903,-73.95067370805087,New York,New York,10120
7183.03,40.77766971645961,-73.98884600064657,New York,New York,10456
7186.15,40.777534316692034,-73.92245664176106,New York,New York,10111
7188.10,40.77676484640478,-73.95907002161171,New York,New York,10009
7188.13,40.77810664692269,-73.96072011752553,New York,New York,10120
7196.04,40.77714139535857,-73.90242282096813,New York,New York,10167
7202.07,40.778149118998094,-73.90839244448763,New York,New York,10167
7204.08,40.77796550768134,-73.94603993600805,New York,New York,10167
7207.08,40.77744309619726,-73.98286245236243,New York,New York,10167
7210.07,40.77854922401591,-73.91905250405836,New York,New York,10016
7212.05,40.77800612753442,-73.9541099846128,New York,New York,10167
7220.01,40.778094434798504,-73.89955835126865,New York,New York,10167
7230.10,40.778593062425436,-73.97756185026483,New York,New York,10167
7233.05,40.77867205876876,-73.91459839929429,New York,New York,10167
7235.13,40.77829244606435,-73.94879835785062,New York,New York,10115
7243.04,40.77866997233366,-73.95774886652984,New York,New York,10016
7253.04,40.778936049745674,-73.97373669110372,New York,New York,11217
7256.01,40.78003673462837,-73.90670347852365,New York,New York,10010
7260.09,40.779616754657006,-73.98089076786927,New York,New York,10002
7265.10,40.78061684994741,-73.95224459852503,New York,New York,10002
7271.01,40.77978421883695,-73.92314910093206,New York,New York,10011
7281.09,40.780222281447806,-73.9772703363055,New York,New York,10011
7284.01,40.78038784160404,-73.9122262691495,New York,New York,10011
7286.01,40.781195542577855,-73.94975838790815,New York,New York,10009
7286.02,40.7824833180377,-73.94894664191217,New York,New York,10010
7286.05,40.781724306707154,-73.94593435310655,New York,New York,10011
7288.04,40.78066237516003,-73.98559707583185,New York,New York,10025
7291.06,40.78142121045958,-73.9182809815085,New York,New York,10011
7293.10,40.78135138309997,-73.95594758249281,New York,New York,11106
7304.08,40.78279722010664,-73.97145622942358,New York,New York,10069
7311.02,40.7829227270678,-73.97861237154089,New York,New York,10010
7314.03,40.78249179765538,-73.91449923881692,New York,New York,10120
7323.09,40.782384895101416,-73.95984972918062,New York,New York,10004
7327.01,40.782960100269854,-73.93074147068516,New York,New York,10120
7338.02,40.783976143020936,-73.94719817127312,New York,New York,10010
7340.06,40.7841257226,-73.98364774088571,New York,New York,10120
7340.07,40.78381951036902,-73.98163699327391,New York,New York,10023
7342.01,40.78395269723969,-73.91686173478092,New York,New York,10120
7344.05,40.78353222713399,-73.95528702439834,New York,New York,11227
7354.01,40.784800106020924,-73.96982601499903,New York,New York,10120
7360.10,40.785257910748015,-73.97668720343786,New York,New York,10004
7363.04,40.78397973244,-73.91226796594222,New York,New York,10120
7365.08,40.78586147849937,-73.948603853199,New York,New York,11211
7365.13,40.78490963347437,-73.95053473051017,New York,New York,10120
7372.10,40.78579943842817,-73.95749935211012,New York,New York,10120
7382.04,40.78505047027825,-73.97283347905069,New York,New York,10010
7386.10,40.78629378659051,-73.94551128560948,New York,New York,10009
7388.10,40.787231477436094,-73.98128977709416,New York,New York,10010
7391.02,40.78597155821591,-73.91506873664773,New York,New York,10010
7393.09,40.787811529761754,-73.95348672207213,New York,New York,10456
7407.13,40.78697724586026,-73.94162160649414,New York,New York,10120
7409.08,40.78683449825938,-73.97711232211793,New York,New York,10120
7414.17,40.787753084890475,-73.94726891291906,New York,New York,10120
7432.04,40.79015265930664,-73.97285368956801,New York,New York,10120
7432.09,40.78824630362054,-73.97044467919038,New York,New York,10162
7436.11,40.78915643694568,-73.94373486371687,New York,New York,10120
7443.01,40.789573175787744,-73.95235253419698,New York,New York,10010
7443.17,40.78806316393099,-73.95201378123338,New York,New York,10009
7450.05,40.79496225699627,-73.93334733135508,New York,New York,10014
7453.01,40.78865142550972,-73.96677183082242,New York,New York,11201
7456.03,40.7892436629776,-73.93951742764622,New York,New York,10009
7458.03,40.788431506933854,-73.97474694027447,New York,New York,10009
7463.09,40.790272387983435,-73.94749732067963,New York,New York,10009
7482.15,40.790531644907794,-73.94184690350235,New York,New York,10012
7484.05,40.789649687867836,-73.9776217849278,New York,New York,11201
7488.24,40.79049369720046,-73.95033892140783,New York,New York,11201
7502.01,40.7921154290603,-73.97397049780444,New York,New York,10014
7504.18,40.79196395779782,-73.9459359767349,New York,New York,11206
7511.19,40.79221282203965,-73.95254387928738,New York,New York,10122
7514.01,40.79347513834823,-73.92389669834265,New York,New York,11227
7520.07,40.79194708692997,-73.96811271956801,New York,New York,10031
7522.02,40.79234854438857,-73.93827462639457,New York,New York,10003
7524.09,40.794142962157174,-73.97413056484207,New York,New York,11201
7524.16,40.79317782799774,-73.97701202948502,New York,New York,11201
7528.31,40.79342377716703,-73.94940332337508,New York,New York,11201
7538.14,40.79499747002377,-73.96448508724127,New York,New York,10122
7538.18,40.792574066610726,-73.96412499667531,New York,New York,11201
7540.02,40.79453829854162,-73.93618796690109,New York,New York,10014
7541.01,40.793818405628905,-73.97189706214986,New York,New York,10009
7543.15,40.79549439547607,-73.9416866532503,New York,New York,10009
7563.06,40.796852735934216,-73.93728952857882,New York,New York,11231
7567.06,40.795384953855034,-73.94414017050822,New York,New York,10009
7571.01,40.795562461494505,-73.91904071846155,New York,New York,10036
7577.27,40.795649767403916,-73.96186289674482,New York,New York,10008
7579.01,40.79744952734383,-73.9312141383937,New York,New York,10009
7579.11,40.79656573935806,-73.93456825043614,New York,New York,10008
7580.01,40.79739316984195,-73.9703824730373,New York,New York,10008
7587.16,40.79756513683209,-73.94896978900454,New York,New York,10010
7595.17,40.79701552419042,-73.964308451931,New York,New York,10010
7596.10,40.7974810787561,-73.9350610872561,New York,New York,10105
7599.02,40.79893457995679,-73.94480809652963,New York,New York,10008
7599.09,40.79792752297848,-73.94232717814968,New York,New York,10010
7602.05,40.79877927644163,-73.9523291229309,New York,New York,10010
7606.01,40.79818904574215,-73.96056830319073,New York,New York,11227
7610.13,40.79903008572985,-73.96646262759323,New York,New York,11206
7611.02,40.799147177362045,-73.93888953196718,New York,New York,10004
7613.04,40.800478668874995,-73.91103233154168,New York,New York,10009
7617.07,40.79949958898599,-73.9556381449458,New York,New York,10008
7618.01,40.800493600410405,-73.92402994771678,New York,New York,10008
7619.05,40.79978366457831,-73.9621307422285,New York,New York,10120
7622.12,40.80064688368188,-73.93492896148456,New York,New York,10456
7623.13,40.80134113426896,-73.971160050648,New York,New York,10120
7625.18,40.800520168712055,-73.94195215782365,New York,New York,10010
7626.02,40.80091160693333,-73.91386420835714,New York,New York,10120
7627.10,40.80117256630275,-73.95009638964629,New York,New York,10008
7631.23,40.80166800762177,-73.95717066272583,New York,New York,10008
7634.01,40.80078191004631,-73.96638574346153,New York,New York,10008
7636.05,40.802912587203146,-73.93785756942563,New York,New York,10023
7639.06,40.80171176826087,-73.90947891942609,New York,New York,10009
7640.04,40.80150293234836,-73.94429762347038,New York,New York,10010
7642.04,40.80260909461616,-73.91736323059597,New York,New York,10120
7643.18,40.80251457685686,-73.95325797857257,New York,New York,10009
7646.04,40.80267578336437,-73.96290997976611,New York,New York,10008
7648.16,40.80240162451747,-73.93368113851612,New York,New York,10008
7650.05,40.80213144508787,-73.9681614575097,New York,New York,11213
7652.04,40.8013246653377,-73.93975840276066,New York,New York,10009
7654.04,40.80418416976471,-73.91157442787501,New York,New York,10069
7655.22,40.802530216895775,-73.94910354989626,New York,New York,10069
7657.03,40.80336379330453,-73.91985550515226,New York,New York,10010
7658.13,40.803891877419375,-73.95589546502,New York,New York,10010
7662.13,40.80573936895866,-73.93631105864961,New York,New York,10009
7667.04,40.80294478856994,-73.94296303114196,New York,New York,10011
7669.10,40.805597420867606,-73.91478586100564,New York,New York,10002
7670.09,40.804347356330645,-73.9515069019137,New York,New York,10009
7680.03,40.80424438108499,-73.96700747131038,New York,New York,10002
7682.01,40.80459733123298,-73.93965130558438,New York,New York,10011
7685.14,40.80406637975489,-73.94590246184809,New York,New York,10002
7687.05,40.80508846109732,-73.91894024071141,New York,New York,10009
7688.12,40.80519792550079,-73.9546972404925,New York,New York,11106
7691.05,40.805671845999996,-73.92519826038462,New York,New York,10002
7692.11,40.806663720894356,-73.96069917386974,New York,New York,10002
7696.07,40.80562287519394,-73.93405522524849,New York,New York,10010
7701.21,40.807253537804904,-73.94175986726052,New York,New York,11206
7703.14,40.80694539685849,-73.91186425694339,New York,New York,10002
7704.04,40.80784596296348,-73.94931487915929,New York,New York,10009
7707.08,40.807378285469746,-73.91927120936599,New York,New York,10005
7712.04,40.807442044312495,-73.9271395497475,New York,New York,10002
7712.06,40.80853465269167,-73.928773172175,New York,New York,10069
7713.01,40.80592914814209,-73.96492390326992,New York,New York,10005
7713.11,40.80821064772536,-73.96419909772496,New York,New York,10010
7716.19,40.80646232432558,-73.9360517090407,New York,New York,10002
7719.13,40.80733942756413,-73.90805485760289,New York,New York,10002
7720.03,40.808388292581945,-73.94524979337316,New York,New York,10002
7722.06,40.80863346134239,-73.91610463448913,New York,New York,10030
7723.01,40.80974872323233,-73.95312726969561,New York,New York,10002
7726.02,40.80835650680885,-73.92363904466018,New York,New York,10010
7727.07,40.808604467590875,-73.95963585864894,New York,New York,10002
7735.05,40.810119814477524,-73.93974818254495,New York,New York,10005
7735.23,40.80755288764034,-73.93913849526218,New York,New York,10002
7737.06,40.80889882805334,-73.91083735420334,New York,New York,10009
7738.04,40.809438668378256,-73.94777151103214,New York,New York,10030
7740.08,40.8096474799661,-73.91787490922033,New York,New York,10030
7741.01,40.80996199619729,-73.95517784968308,New York,New York,11106
7741.04,40.81028923891473,-73.95731954753867,New York,New York,10011
7744.06,40.81086884067003,-73.92733035352883,New York,New York,10002
7745.07,40.81098571577998,-73.96343105342616,New York,New York,10009
7748.02,40.81019707477853,-73.93717348022658,New York,New York,10002
7751.05,40.81127648063488,-73.90774699685558,New York,New York,10002
7753.13,40.810770629369564,-73.94309704336385,New York,New York,10009
7755.03,40.81115246979235,-73.91490831187978,New York,New York,10009
7756.10,40.81147334105939,-73.95184846441713,New York,New York,10009
7759.08,40.810905371974556,-73.92162464457506,New York,New York,11201
7767.06,40.812762034642425,-73.90162783581212,New York,New York,11238
7769.06,40.81218053326061,-73.93786196359193,New York,New York,10009
7774.02,40.81236952131711,-73.94615060091444,New York,New York,10014
7777.02,40.8117201066093,-73.91710321562326,New York,New York,11225
7781.10,40.81272628039279,-73.92366123987975,New York,New York,10009
7783.18,40.81208732325904,-73.96121932089581,New York,New York,10012
7788.13,40.8118836617766,-73.90422644945106,New York,New York,11238
7790.04,40.81300703012095,-73.94184884172152,New York,New York,10036
7793.02,40.81407768981094,-73.91190904559225,New York,New York,10036
7795.09,40.81251206228246,-73.94925027518947,New York,New York,11225
7798.02,40.81235416932626,-73.92032841112467,New York,New York,10009
7800.03,40.813329136127194,-73.95649748738705,New York,New York,10009
7803.02,40.81269859153991,-73.9293202126599,New York,New York,10122
7803.08,40.8132380561572,-73.93062545827948,New York,New York,10003
7807.04,40.815138546540446,-73.89990656733089,New York,New York,10158
7809.13,40.814482153511584,-73.9361378648417,New York,New York,10038
7812.01,40.813151339012464,-73.9092858948972,New York,New York,10468
7814.01,40.81356864623378,-73.9451858192852,New York,New York,11249
7816.14,40.81442033488192,-73.91533465657933,New York,New York,11249
7818.17,40.814444301352076,-73.95333683155518,New York,New York,10016
7820.05,40.814128724973685,-73.88562558672807,New York,New York,10010
7821.01,40.81443792834694,-73.92498516428758,New York,New York,10038
7823.03,40.814309249176596,-73.95904415844095,New York,New York,10016
7830.03,40.81430400691902,-73.90389882335627,New York,New York,10167
7832.04,40.81360489117719,-73.93929400900701,New York,New York,10038
7835.10,40.81586812282565,-73.91193921915833,New York,New York,10167
7837.30,40.81617715501591,-73.94827728962727,New York,New York,10010
7840.05,40.81637632022147,-73.91956619902014,New York,New York,11378
7840.11,40.81466525125818,-73.91838532112727,New York,New York,11249
7842.16,40.81633852198813,-73.95430850578931,New York,New York,10016
7844.05,40.816161045523806,-73.89153162979365,New York,New York,10167
7845.06,40.81662487355994,-73.92802589966465,New York,New York,10010
7849.10,40.81639211844546,-73.8965135417318,New York,New York,10167
7851.04,40.815505631955176,-73.93584123107264,New York,New York,10167
7853.01,40.81607751911111,-73.90816794385034,New York,New York,10016
7855.03,40.81692421689394,-73.9423443990487,New York,New York,10158
7858.02,40.817207529867346,-73.91473164068027,New York,New York,11216
7860.08,40.81819187025332,-73.9510492293761,New York,New York,11249
7863.03,40.81736410161276,-73.92302103432493,New York,New York,10167
7865.09,40.81753222683558,-73.95718375498517,New York,New York,10451
7867.04,40.81816734354945,-73.89417472225276,New York,New York,10038
7868.05,40.817813424732826,-73.92962738132061,New York,New York,11216
7870.02,40.818955937690355,-73.90202405840608,New York,New York,11102
7872.03,40.81720389707273,-73.93881205099697,New York,New York,10016
7876.07,40.818985554022795,-73.94480504708027,New York,New York,10024
7879.01,40.81686189609245,-73.91734724480177,New York,New York,11249
7881.09,40.818207060170735,-73.95530162085366,New York,New York,11225
7883.06,40.81657347136126,-73.88820189528796,New York,New York,10158
7883.09,40.818722142252184,-73.88868980614878,New York,New York,10010
7884.04,40.818171057634714,-73.9253400032798,New York,New York,10010
7886.02,40.81831588021651,-73.96039029585808,New York,New York,11102
7888.10,40.81998546436207,-73.89728987829311,New York,New York,10016
7891.06,40.81780116848923,-73.90525033798461,New York,New York,10010
7893.05,40.819337890199414,-73.94102517061877,New York,New York,10016
7896.11,40.8198547014,-73.9124548968205,New York,New York,10035
7898.03,40.818457502485074,-73.94757846509329,New York,New York,10035
7901.04,40.820015361569624,-73.92146326964557,New York,New York,10035
7903.02,40.81899399855788,-73.95610577778616,New York,New York,10035
7905.05,40.818795034881354,-73.89021603128815,New York,New York,11249
7906.13,40.82010860997906,-73.9289902658534,New York,New York,10010
7909.07,40.819757371366926,-73.90115189811111,New York,New York,10016
7910.01,40.81982212166667,-73.93649605668212,New York,New York,10016
7910.10,40.82110377145869,-73.9360043915641,New York,New York,10016
7913.15,40.81984923295082,-73.90836317952869,New York,New York,10016
7915.11,40.82065826871817,-73.9451785208555,New York,New York,10010
7918.12,40.819636238929874,-73.91611175082622,New York,New York,11216
7920.05,40.81979549355769,-73.95178207593787,New York,New York,10016
7922.01,40.820618387863014,-73.8882918619178,New York,New York,11216
7925.04,40.820042568894365,-73.95909335286268,New York,New York,11238
7927.08,40.82107259707143,-73.89509299364286,New York,New York,11225
7931.05,40.820285725067194,-73.9038909105494,New York,New York,10024
7932.10,40.82087202277155,-73.93922607062069,New York,New York,10010
7935.07,40.82078474440678,-73.911723956113,New York,New York,10024
7937.15,40.82113950274423,-73.94776894215384,New York,New York,10038
7940.02,40.820575352879516,-73.9175513901506,New York,New York,11217
7940.04,40.82125464607434,-73.9172605352766,New York,New York,11249
7942.07,40.82174039620746,-73.95351060688579,New York,New York,11216
7942.21,40.8231067072524,-73.95588490898557,New York,New York,11249
7944.11,40.821982593399994,-73.88860360586924,New York,New York,10016
7945.07,40.82232439724138,-73.9269201451,New York,New York,10016
7948.10,40.821947296838864,-73.89675182927962,New York,New York,10158
7952.02,40.82185335642663,-73.90754843263859,New York,New York,10010
7954.12,40.82306485261563,-73.94182670263636,New York,New York,11216
7957.11,40.8222506029853,-73.91464472767647,New York,New York,10010
7959.18,40.82286362754023,-73.95125577901725,New York,New York,10038
7962.01,40.82324436570968,-73.92322338451612,New York,New York,10035
7966.02,40.82396017882927,-73.89405066032927,New York,New York,10011
7967.04,40.822146616675944,-73.92896437754992,New York,New York,10039
7970.05,40.82253530051538,-73.90177732577308,New York,New York,10460
7971.07,40.82277965973036,-73.93740594815499,New York,New York,10011
7974.01,40.823854955104395,-73.9087454591511,New York,New York,10002
7976.08,40.8234867887656,-73.94389847006697,New York,New York,10011
7979.17,40.824834908778556,-73.91645922944988,New York,New York,10002
7981.16,40.824723546473415,-73.95190101093033,New York,New York,10010
7981.27,40.824031004625,-73.95472202942763,New York,New York,10009
7983.04,40.82537466034375,-73.88773720120312,New York,New York,10009
7984.04,40.8233954680147,-73.92470102514706,New York,New York,10009
7987.14,40.82389440126548,-73.89741741191062,New York,New York,10019
7991.01,40.82485418574383,-73.90240124876543,New York,New York,10153
7992.04,40.82507309939627,-73.94164697952215,New York,New York,10111
7995.04,40.82399857961229,-73.910919387565,New York,New York,10009
7997.08,40.82520995456209,-73.94720678269717,New York,New York,10111
8000.02,40.82370944787126,-73.91939412378444,New York,New York,10111
8004.03,40.82496926634884,-73.89167226299224,New York,New York,10111
8005.03,40.82576113923666,-73.92733409948666,New York,New York,10111
8005.08,40.82442125568446,-73.92814191113592,New York,New York,10111
8008.03,40.82625723030576,-73.89878171595683,New York,New York,10111
8009.05,40.825343944047034,-73.93625658826683,New York,New York,10111
8012.04,40.82701543608882,-73.90744534833553,New York,New York,10111
8013.07,40.82701930361879,-73.94272971785367,New York,New York,10111
8016.07,40.825699069699574,-73.91562453813732,New York,New York,10019
8018.04,40.82731994888172,-73.95196023437903,New York,New York,10009
8018.09,40.826917589134396,-73.94967961556264,New York,New York,10010
8020.01,40.82769501182353,-73.88668368898189,New York,New York,10105
8021.11,40.82721207414916,-73.92271789944019,New York,New York,10004
8024.05,40.827165954132745,-73.89365765288495,New York,New York,10010
8025.01,40.82663927058412,-73.92929434031775,New York,New York,10009
8029.28,40.82645716387916,-73.93790178153334,New York,New York,10009
8033.09,40.82704509899731,-73.94590642067473,New York,New York,10009
8036.05,40.827199657008336,-73.91769739455987,New York,New York,10009
8040.03,40.82672478726263,-73.88869000139394,New York,New York,11227
8041.07,40.827902775404844,-73.9271375509612,New York,New York,10009
8044.09,40.82735418499146,-73.89632590317949,New York,New York,10014
8048.01,40.82898404998676,-73.90529330130464,New York,New York,10003
8048.04,40.82824600362034,-73.9036778668809,New York,New York,10009
8049.05,40.82695041645198,-73.94137283164407,New York,New York,10009
8049.10,40.82835213348701,-73.94289016064936,New York,New York,10009
8052.01,40.828978721655844,-73.91128362070779,New York,New York,10009
8052.02,40.828103181024645,-73.91283494574296,New York,New York,11231
8054.04,40.82915852296326,-73.95041044617551,New York,New York,11201
8057.02,40.829566961293104,-73.92149538025286,New York,New York,11201
8060.01,40.83007440727059,-73.89216124418824,New York,New York,10012
8061.01,40.83018357654815,-73.92878479711852,New York,New York,10009
8064.03,40.829923438412216,-73.8988287196336,New York,New York,10014
8065.13,40.82921102215418,-73.93693148688986,New York,New York,10014
8068.01,40.82993400162079,-73.90764841547707,New York,New York,10009
8069.01,40.829410299864065,-73.94430093143855,New York,New York,11201
8072.06,40.83129242593447,-73.91744522115474,New York,New York,10009
8076.08,40.83025742223016,-73.88619331457899,New York,New York,10012
8077.07,40.83022582211111,-73.92340265317593,New York,New York,11206
8080.01,40.83052460434921,-73.89466247660317,New York,New York,10009
8081.01,40.82982523363248,-73.9309743737265,New York,New York,11201
8084.03,40.83045342475582,-73.9045771788217,New York,New York,11216
8085.05,40.830615301138884,-73.94134538856018,New York,New York,10012
8085.09,40.83224130674324,-73.94102116670946,New York,New York,10014
8085.13,40.83053008203763,-73.93991796003763,New York,New York,10009
8088.01,40.83092718173276,-73.91117166097845,New York,New York,11216
8089.05,40.8312707656439,-73.94671958051707,New York,New York,10009
8092.06,40.83199505246269,-73.91959851744136,New York,New York,11227
8095.06,40.83217259023913,-73.88969061603261,New York,New York,11201
8096.02,40.83152276729629,-73.92614940994908,New York,New York,11201
8096.03,40.83200118020192,-73.92739266414422,New York,New York,11201
8099.04,40.8317407121194,-73.8968599100597,New York,New York,11201
8100.01,40.83074095954167,-73.93634547729167,New York,New York,11201
8103.05,40.832635746750846,-73.90518730338552,New York,New York,11201
8104.10,40.832015123473454,-73.94257381123451,New York,New York,10009
8107.10,40.831578813864645,-73.91493154615193,New York,New York,10009
8108.02,40.83207828379343,-73.94970748289907,New York,New York,10003
8110.04,40.83269539064572,-73.88525959722286,New York,New York,10122
8111.04,40.83175984897203,-73.92239407905595,New York,New York,11201
8111.07,40.834037037415385,-73.92245172523846,New York,New York,10009
8114.02,40.83201821310416,-73.89267966652083,New York,New York,10122
8115.01,40.832761434431035,-73.92941334886206,New York,New York,10451
8118.02,40.831690616676575,-73.9021076181078,New York,New York,10009
8119.05,40.83335771947312,-73.93936207078494,New York,New York,10031
8122.04,40.8340316867285,-73.90888487697285,New York,New York,11216
8123.02,40.833049426874716,-73.94587370894631,New York,New York,11231
8126.07,40.8342391420641,-73.91769347465865,New York,New York,10009
8129.02,40.83415951942424,-73.88952933190909,New York,New York,10009
8130.02,40.832629326704,-73.925067995784,New York,New York,10003
8133.08,40.83325654811583,-73.89662713354055,New York,New York,10014
8137.06,40.834892176854055,-73.90371883036217,New York,New York,10003
8138.07,40.83444598435505,-73.93987192897069,New York,New York,10009
8141.05,40.83514051099583,-73.91196596756733,New York,New York,11227
8144.09,40.83629810705344,-73.88436775330534,New York,New York,10036
8145.03,40.833954768690646,-73.9211340335108,New York,New York,11227
8149.09,40.83451967079608,-73.92837239265097,New York,New York,10003
8152.03,40.835421674379205,-73.9015626695841,New York,New York,10003
8153.10,40.83581862304196,-73.93751768283916,New York,New York,10036
8156.01,40.83721580745098,-73.90838526836764,New York,New York,11216
8156.03,40.8361081347107,-73.90723221632314,New York,New York,10003
8157.06,40.83571095305033,-73.94348952337418,New York,New York,10122
8160.03,40.83531883367442,-73.91544392166512,New York,New York,10122
8163.05,40.836758104135384,-73.88792405756615,New York,New York,11216
8167.02,40.83528039178423,-73.89508359984649,New York,New York,10009
8167.04,40.83591013684615,-73.89316310760947,New York,New York,11201
8171.06,40.837152733928804,-73.90221728260842,New York,New York,11201
8172.07,40.83612395360761,-73.939736596126,New York,New York,10014
8175.06,40.83762595823,-73.9104637833,New York,New York,10014
8179.03,40.836545997516396,-73.91831304998361,New York,New York,10009
8182.02,40.83705539236321,-73.8903735984434,New York,New York,10036
8183.02,40.83877446367347,-73.92705145559184,New York,New York,10009
8183.08,40.83676031966295,-73.92606260115957,New York,New York,10009
8186.01,40.83920256974875,-73.89905821819094,New York,New York,10003
8187.04,40.83826093789764,-73.93605726404725,New York,New York,10009
8190.03,40.83837853086932,-73.90580065511932,New York,New York,10122
8191.01,40.83899873417787,-73.94130328470868,New York,New York,10009
8194.06,40.83950965194139,-73.91302865668132,New York,New York,10021
8194.07,40.83830811815612,-73.91252948297047,New York,New York,10009
8196.02,40.83938129310322,-73.88642226972902,New York,New York,10009
8198.05,40.83940184734109,-73.92246034668604,New York,New York,10009
8205.05,40.8395550702894,-73.90030695689971,New York,New York,10009
8206.17,40.839478996381445,-73.93705196314433,New York,New York,10009
8209.01,40.83903622896257,-73.91084284303743,New York,New York,11201
8210.01,40.83925713365873,-73.94543089764286,New York,New York,10009
8213.01,40.84054396528047,-73.91792012007011,New York,New York,11216
8216.02,40.83925562319737,-73.88855538471053,New York,New York,10009
8218.04,40.83905942926496,-73.92601215789743,New York,New York,10009
8225.05,40.840014227093164,-73.90547424602485,New York,New York,10009
8226.05,40.84003184639416,-73.94289780954743,New York,New York,10014
8226.06,40.84080726262978,-73.93970867393308,New York,New York,10014
8226.07,40.84198611867591,-73.9421014357766,New York,New York,10009
8229.04,40.84047438109538,-73.91148174460923,New York,New York,10009
8233.01,40.840481029047616,-73.91919668905443,New York,New York,10014
8236.01,40.841161846750005,-73.89244842721722,New York,New York,10122
8241.07,40.84220699957143,-73.89851854985714,New York,New York,10009
8242.04,40.84214081018834,-73.93515025473096,New York,New York,11201
8245.03,40.84268963853906,-73.90846665103906,New York,New York,10009
8249.10,40.8407286354793,-73.91512442911764,New York,New York,10009
8254.01,40.84202432764197,-73.92606565571604,New York,New York,10009
8262.07,40.842981490165975,-73.93869445857263,New York,New York,10009
8265.09,40.84304267531047,-73.91172769283756,New York,New York,10003
8269.01,40.84406696798024,-73.9172191148498,New York,New York,10014
8277.03,40.84312334102941,-73.90020338386765,New York,New York,10012
8278.05,40.844019072433476,-73.93367440098712,New York,New York,10122
8281.06,40.84325135520497,-73.90487830893167,New York,New York,10014
8285.09,40.844808214137934,-73.9119936650862,New York,New York,11370
8285.11,40.8455508306092,-73.9143771634023,New York,New York,10003
8290.01,40.843926228880136,-73.92101380637328,New York,New York,10028
8299.03,40.8460903924686,-73.93763627015217,New York,New York,10036
8303.06,40.84622632951491,-73.90931855698106,New York,New York,11216
8307.05,40.84562125220725,-73.91726553677202,New York,New York,11201
8316.02,40.84725765731154,-73.93331735518078,New York,New York,10014
8319.01,40.846373826975615,-73.90381615235366,New York,New York,10014
8320.01,40.84515415917308,-73.94059822131538,New York,New York,10009
8323.05,40.84744190078218,-73.91134060481188,New York,New York,10122
8327.15,40.84601731438597,-73.91957004964036,New York,New York,10036
8336.02,40.84838248044593,-73.93598141957072,New York,New York,10009
8340.05,40.84687723057944,-73.90739690541122,New York,New York,10009
8344.04,40.848123871292515,-73.91612763071429,New York,New York,11201
8344.09,40.8496962762449,-73.9161203844898,New York,New York,10122
8348.02,40.847672494870814,-73.92209379358852,New York,New York,10009
8353.02,40.847441697786586,-73.93118032245732,New York,New York,11201
8353.09,40.84921666011765,-73.93022566171764,New York,New York,10009
8356.02,40.84781520246559,-73.90185931046155,New York,New York,10009
8356.04,40.848835231203296,-73.90321980484615,New York,New York,10014
8358.03,40.849941506397435,-73.93839558567736,New York,New York,10014
8358.10,40.84832447291781,-73.94132632167808,New York,New York,11201
8362.02,40.84838684342758,-73.9096570490069,New York,New York,11201
8362.09,40.85016724222472,-73.91073982478652,New York,New York,10451
8366.06,40.849605924897034,-73.91918588934556,New York,New York,11227
8366.07,40.848395543096295,-73.91836949571851,New York,New York,10122
8379.07,40.85097070072666,-73.90642353468667,New York,New York,10012
8381.04,40.851680698798866,-73.94179368715572,New York,New York,10122
8384.03,40.85008460130909,-73.91275438192727,New York,New York,10014
8394.15,40.851085990292034,-73.92882535151328,New York,New York,11201
8397.02,40.850525966664705,-73.90131717376471,New York,New York,11213
8403.02,40.851733166440006,-73.90895023166999,New York,New York,10009
8407.03,40.851788256598766,-73.91635720594445,New York,New York,10009
8416.07,40.85253200286749,-73.93444145759753,New York,New York,10122
8416.10,40.852272340732874,-73.931296632,New York,New York,11201
8425.01,40.85366371551527,-73.91257030187023,New York,New York,10028
8428.04,40.85378611313253,-73.92082072751808,New York,New York,10009
8428.05,40.85306410997123,-73.91834718674956,New York,New York,11231
8432.11,40.853240073233664,-73.92711951339345,New York,New York,10009
8435.04,40.854204043295056,-73.899308422579,New York,New York,11231
8441.01,40.85326601675,-73.9054685575,New York,New York,10122
8441.05,40.85362121236586,-73.90874617679675,New York,New York,10003
8453.14,40.85480082317045,-73.92945123868182,New York,New York,11201
8456.02,40.85495155791473,-73.90282554853488,New York,New York,10009
8458.03,40.85529685112558,-73.93788832394884,New York,New York,10009
8462.09,40.855172158373016,-73.9106122056389,New York,New York,10003
8465.01,40.85499437517105,-73.91665059042106,New York,New York,10003
8469.05,40.85590105486278,-73.92702367701924,New York,New York,10003
8472.06,40.857031903058825,-73.89821569479412,New York,New York,10009
8472.08,40.85552132844497,-73.89617422517703,New York,New York,10009
8474.02,40.85653979977606,-73.93294170483034,New York,New York,10009
8478.11,40.85563450703604,-73.90554668582884,New York,New York,10003
8483.02,40.85513402405264,-73.91280839161404,New York,New York,10009
8491.07,40.85715911488125,-73.92719151569877,New York,New York,11231
8494.01,40.85669471556938,-73.90266056308673,New York,New York,10009
8494.06,40.855838279222226,-73.89957258235555,New York,New York,10014
8496.01,40.856941008453276,-73.93568050743924,New York,New York,11227
8500.01,40.85628196097728,-73.90733016149242,New York,New York,11216
8507.02,40.85890803210097,-73.92308240216987,New York,New York,10009
8510.02,40.858520640401096,-73.89633353068132,New York,New York,10122
8511.08,40.8580334516227,-73.93211458519414,New York,New York,11201
8514.05,40.85852986419079,-73.90265197036184,New York,New York,11231
8520.01,40.858401754347454,-73.9100369290678,New York,New York,10014
8528.05,40.86011785427953,-73.9285149493189,New York,New York,10014
8532.03,40.85920020928571,-73.9338589120989,New York,New York,11231
8535.01,40.85842729993617,-73.90631121415957,New York,New York,11201
8535.09,40.86044134319737,-73.90575858693684,New York,New York,10122
8539.02,40.8594880586,-73.91338310636,New York,New York,11201
8543.01,40.861265631824075,-73.9214601446229,New York,New York,11370
8546.06,40.86188840494048,-73.89485051142857,New York,New York,10021
8547.04,40.862038046696966,-73.92974068967425,New York,New York,11231
8550.01,40.86080399305953,-73.90254658385714,New York,New York,10036
8550.04,40.860092992208,-73.900730411728,New York,New York,11227
8555.05,40.86046225525,-73.90936229143148,New York,New York,11231
8559.04,40.86169210233628,-73.91857359024104,New York,New York,11231
8563.06,40.86140821310968,-73.9255445076387,New York,New York,11216
8566.05,40.86165832516423,-73.8984777905365,New York,New York,11216
8571.02,40.862919463259544,-73.90314555683206,New York,New York,11216
8575.02,40.861548550853655,-73.91219191520732,New York,New York,10012
8579.03,40.86325555407619,-73.92079190017144,New York,New York,10009
8579.05,40.862591295137925,-73.922677723023,New York,New York,10009
8579.09,40.86267132953333,-73.92004346206667,New York,New York,10009
8582.02,40.86388500289831,-73.89247574018644,New York,New York,10009
8582.09,40.86171722522934,-73.89099740559298,New York,New York,10120
8583.02,40.86312388583243,-73.92701158438919,New York,New York,10120
8586.09,40.86305306347287,-73.90099875503876,New York,New York,10105
8590.01,40.86293131907643,-73.90729110885987,New York,New York,10120
8597.01,40.865718488666666,-73.88788387380555,New York,New York,10010
8601.04,40.864534580814514,-73.89519571004435,New York,New York,10010
8605.06,40.86496053774683,-73.90240309250632,New York,New York,10010
8613.09,40.86467432436559,-73.91859992926882,New York,New York,11206
8615.01,40.86647288761842,-73.89045600564145,New York,New York,11227
8616.06,40.865396384814716,-73.92795222497003,New York,New York,10120
8619.02,40.86655229667248,-73.89796317652961,New York,New York,10105
8624.01,40.86603206444348,-73.90426540254784,New York,New York,10008
8631.03,40.86699392708929,-73.8858248744107,New York,New York,10009
8632.07,40.86616551002661,-73.92267802441444,New York,New York,10120
8635.08,40.86763781906475,-73.89291248393884,New York,New York,10120
8636.04,40.867418932774356,-73.92942685642052,New York,New York,10010
8639.01,40.86690951309166,-73.90190610802082,New York,New York,10120
8643.01,40.86569328426667,-73.90858401294666,New York,New York,10010
8646.02,40.86822609298942,-73.88148487260318,New York,New York,10120
8647.10,40.86711301279021,-73.91733856666116,New York,New York,10009
8649.03,40.868449560445654,-73.88847938637174,New York,New York,10009
8650.11,40.867578616393025,-73.92627837099535,New York,New York,10009
8653.09,40.868811634241375,-73.89651639366284,New York,New York,10009
8655.02,40.868841908009614,-73.93151672768751,New York,New York,10010
8664.06,40.868142336655175,-73.88409389091954,New York,New York,10010
8665.02,40.86993242708986,-73.92072732791003,New York,New York,10120
8665.09,40.867866875189996,-73.91964303649,New York,New York,10010
8667.01,40.869483317903025,-73.89146539911818,New York,New York,10120
8676.01,40.870654782145834,-73.90681240252083,New York,New York,10004
8679.03,40.869274428510714,-73.915253266424,New York,New York,10120
8682.06,40.870008819028406,-73.88567027894318,New York,New York,10120
8696.05,40.871126293903224,-73.91148707238709,New York,New York,10120
8699.01,40.870611664572365,-73.88184790616974,New York,New York,10120
8703.05,40.871453861952666,-73.88835712277515,New York,New York,10120
8707.01,40.8715849241695,-73.89713849301695,New York,New York,10009
8711.02,40.8732585617074,-73.9066054458971,New York,New York,10009
8715.01,40.87244379426383,-73.9127620276681,New York,New York,10120
8715.06,40.8714069063125,-73.91439721355208,New York,New York,10120
8717.07,40.87207110908451,-73.8846220965493,New York,New York,10009
8720.02,40.871446197211334,-73.89280854134267,New York,New York,10120
8732.04,40.87304233591355,-73.91828776890917,New York,New York,10120
8734.02,40.87306542680882,-73.88970726667941,New York,New York,10120
8734.04,40.873801607321425,-73.88662498737501,New York,New York,10120
8738.01,40.87394254264151,-73.89528918955345,New York,New York,10010
8748.02,40.87408741344,-73.88336472379,New York,New York,10120
8752.01,40.87447982488827,-73.89190670587709,New York,New York,10120
8766.03,40.87555088752593,-73.88637853048814,New York,New York,10120
8778.01,40.876533546868615,-73.88364903518978,New York,New York,10120
8782.01,40.87706502843637,-73.88942060454546,New York,New York,10120
8795.01,40.87943599251821,-73.8852780475098,New York,New York,10153
8795.03,40.87795327229,-73.884765541936,New York,New York,10120
8799.01,40.878225438466664,-73.89185703049276,New York,New York,10019
8811.01,40.880296969326,-73.88609455261057,New York,New York,10021
8841.03,40.88223576659884,-73.88699682663373,New York,New York,10019
